,city,region_name,lat_x,lon_x,lat_y,lon_y,distance_km
933,Сычевка,Смоленская область,55.8308821,34.2778793,54.356365,32.08746,215.17183787002423
791,Сорск,Республика Хакасия,54.0002888,90.2594446,54.0834652,90.0184549555963,18.251785365747356
838,Чапаевск,Самарская область,52.928961,49.8673269,52.981285,49.711193,11.96848696518766
71,Вязники,Владимирская область,56.29773,42.2687398,56.24514,42.137577,9.988880301507837
874,Артемовский,Свердловская область,57.3384177,61.8947443,57.3998447,61.96666621799851,8.0777766129309
908,Полевской,Свердловская область,56.4956952,60.2365298,56.442108,60.165859,7.37209575979994
549,Новосибирск,Новосибирская область,55.028191,82.9211489,54.96781445,82.95159894278376,6.988845815470311
300,Шарья,Костромская область,58.3760542,45.4062414,58.37257,45.519306,6.603834482146122
262,Новокузнецк,Кемеровская область - Кузбасс,53.794315,87.2142745,53.757607,87.136101,6.561031337862809
667,Гусиноозерск,Республика Бурятия,51.2865048,106.5230319,51.3174054,106.44796676012972,6.248177876882157
822,Рязань,Рязанская область,54.6254445,39.7358609,54.6702523,39.68844236231995,5.84222574445767
813,Таганрог,Ростовская область,47.2094917,38.9350989,47.2392184,38.87550310009352,5.583891008509982
808,Новошахтинск,Ростовская область,47.757773,39.9363697,47.79626975,39.89356042203927,5.343875186563895
602,Кунгур,Пермский край,57.4283296,56.9438656,57.3915362,56.98942623195818,4.917745401056746
452,Люберцы,Московская область,55.7003989,37.9606238,55.6783142,37.89377,4.8568466981919185
256,Кемерово,Кемеровская область - Кузбасс,55.3910651,86.0467781,55.355125,86.087234,4.743934419284597
708,Печора,Республика Коми,65.148584,57.2239777,65.1155035,57.1616254,4.69376378207038
114,Вологда,Вологодская область,59.2483905,39.8355662,59.218876,39.893276,4.6417487919301355
321,Темрюк,Краснодарский край,45.2610949,37.4454412,45.2751663,37.3905481,4.571895836973771
533,Великий Новгород,Новгородская область,58.5213846,31.2755394,58.5609587,31.2809005856491,4.411423503087866
78,Кольчугино,Владимирская область,56.3327254,39.391336,56.2939784,39.3759931,4.411159217101804
1078,Сатка,Челябинская область,55.0405288,59.0288975,55.04667015,58.96060250930489,4.404299645684686
138,Россошь,Воронежская область,50.1701949,39.6226965,50.1961874,39.5764857,4.379444979972186
25,Коряжма,Архангельская область,61.2885948,47.1003015,61.3151659,47.1607626,4.37625719601195
496,Мурманск,Мурманская область,69.007721,33.0685865,68.970665,33.07497,4.128291291067954
970,Калязин,Тверская область,57.2579478,37.7819693,57.2400206,37.8404883,4.04545316073134
379,Кириши,Ленинградская область,59.4742862,32.0624947,59.450325,32.010578,3.962657133759914
727,Щелкино,Республика Крым,45.4288991,35.825165,45.393622,35.83208068979651,3.959607281837162
864,Невельск,Сахалинская область,46.6526899,141.8630725,46.6879219,141.8599427,3.924891482976014
363,Льгов,Курская область,51.6597148,35.2612491,51.6906587,35.2839999,3.7815532797582088
466,Раменское,Московская область,55.5495132,38.2728914,55.5709361,38.2282099,3.6836767224980536
397,Сосновый Бор,Ленинградская область,59.8772884,29.1291619,59.89695,29.076492,3.662428285268393
265,Прокопьевск,Кемеровская область - Кузбасс,53.8604265,86.7183577,53.890972,86.737663,3.6246133009043735
797,Волгодонск,Ростовская область,47.5165338,42.1984951,47.5412272,42.22788957160185,3.522782330395669
371,Волхов,Ленинградская область,59.9005958,32.3520756,59.9275868,32.3276803,3.294955729873657
562,Бугуруслан,Оренбургская область,53.6523728,52.4326853,53.6247165,52.4182422,3.219272004104548
478,Хотьково,Московская область,56.2516982,37.9396017,56.2541234,37.9908107,3.1747507533067836
436,Кашира,Московская область,54.853337,38.1904392,54.837449,38.1505119,3.1073899422742572
353,Куртамыш,Курганская область,54.9368539,64.4203722,54.909466,64.428383,3.088117984703356
9,Рубцовск,Алтайский край,51.5012067,81.2078695,51.5276264,81.2176174,3.014183393247636
270,Юрга,Кемеровская область - Кузбасс,55.7202694,84.8886399,55.7136,84.934799,2.9847320190930677
93,Волжский,Волгоградская область,48.7978209,44.7462538,48.782102,44.7779843,2.9083191382791678
587,Пенза,Пензенская область,53.1753314,45.0348625,53.1937836,45.006741250609664,2.778654229920333
233,Людиново,Калужская область,53.8700828,34.4385915,53.8454692,34.43152145267353,2.7759051063151876
399,Тихвин,Ленинградская область,59.6272904,33.5072731,59.644323,33.5418624,2.7142141134414723
1098,Новочебоксарск,Чувашская Республика,56.1094977,47.4791113,56.09862685,47.51815143056067,2.7059500213943015
650,Благовещенск,Республика Башкортостан,55.0499867,55.9553186,55.031143,55.981876,2.6932389544679265
800,Зверево,Ростовская область,48.0435487,40.1265822,48.020645,40.118561,2.615683785515395
135,Острогожск,Воронежская область,50.8677905,39.0407746,50.864902,39.077244,2.579447070153586
547,Куйбышев,Новосибирская область,55.4685094,78.3242048,55.4454258,78.3222294,2.569799233821125
842,Балаково,Саратовская область,52.0224231,47.7827765,52.01812,47.819141,2.5339155004031237
1044,Сарапул,Удмуртская Республика,56.4615767,53.8037657,56.4811552,53.78279376532065,2.5295439718953565
448,Лобня,Московская область,56.0328881,37.4614035,56.0104473,37.4670831,2.5201419916045125
743,Ленск,Республика Саха (Якутия),60.7276196,114.9548255,60.7145488,114.9172123,2.5092337018808464
36,Астрахань,Астраханская область,46.3655652,48.0559236,46.3498308,48.0326203,2.501836225763357
751,Удачный,Республика Саха (Якутия),66.4071765,112.3061555,66.411768,112.2517294,2.4751853685432397
337,Игарка,Красноярский край,67.4666901,86.5812794,67.4566185,86.5308425,2.423907809217326
522,Павлово,Нижегородская область,55.9797564,43.0995042,55.965137,43.071114,2.4006799653456774
421,Высоковск,Московская область,56.3359513,36.5251837,56.3205097,36.5521708,2.3908764065514374
168,Южа,Ивановская область,56.5926877,42.0458099,56.5840428,42.0109249,2.3423275175487923
599,Красновишерск,Пермский край,60.3901321,57.0535682,60.40546155,57.08203197046519,2.3129797207103655
985,Асино,Томская область,56.9907085,86.1765257,56.999187,86.14167,2.3121233774143395
97,Камышин,Волгоградская область,50.0651529,45.3844202,50.0808422,45.4048003,2.2713318620864285
792,Черногорск,Республика Хакасия,53.8259342,91.3260229,53.82378765,91.29181719923317,2.257689380536742
568,Оренбург,Оренбургская область,51.7875092,55.1018828,51.767452,55.097118,2.2542213516136353
1057,Хабаровск,Хабаровский край,48.4647258,135.0598942,48.481403,135.076935,2.239864916986753
617,Артем,Приморский край,43.3501675,132.1596175,43.3570377,132.1853629,2.2173514752112515
1073,Миасс,Челябинская область,55.0456457,60.1077572,55.065304,60.108337,2.186215126001338
420,Воскресенск,Московская область,55.3071519,38.7027953,55.322518,38.6816824,2.168924708688947
77,Ковров,Владимирская область,56.3554349,41.3170576,56.374603,41.311676,2.1570142953224267
973,Конаково,Тверская область,56.7275204,36.8012716,56.7131572,36.7775654,2.154758699685393
8,Новоалтайск,Алтайский край,53.4119759,83.9311069,53.393341,83.939407,2.1439187152756465
103,Николаевск,Волгоградская область,50.0165306,45.4731658,50.03146,45.454487,2.129895684503851
189,Усть-Кут,Иркутская область,56.7928178,105.7757343,56.780561,105.7489287,2.126757486353189
664,Учалы,Республика Башкортостан,54.3067375,59.4125461,54.316597,59.384636,2.11655034890731
21,Шимановск,Амурская область,52.0051886,127.7005458,51.9987022,127.6719156,2.0883942775853677
516,Кстово,Нижегородская область,56.1432084,44.1664198,56.149551,44.198032,2.0813106152334915
704,Вуктыл,Республика Коми,63.8615274,57.3165402,63.844337,57.300171,2.0729573647406427
404,Елец,Липецкая область,52.6152411,38.5289342,52.6219865,38.5003298,2.071590567138997
939,Железноводск,Ставропольский край,44.1320568,43.0306461,44.1424034,43.0090751,2.070471567525818
702,Суоярви,Республика Карелия,62.0787293,32.3499386,62.09551245,32.366268473677,2.05067133056899
132,Лиски,Воронежская область,50.9945626,39.5184909,50.982079,39.496941,2.0498960421385632
183,Свирск,Иркутская область,53.0842668,103.3364093,53.066269,103.342331,2.039985960821765
413,Апрелевка,Московская область,55.5276918,37.065143,55.5454564,37.0729156,2.0349782775821295
624,Партизанск,Приморский край,43.1280578,133.1264567,43.1413275,133.1436968,2.033271154549056
579,Орел,Орловская область,52.9671298,36.0696427,52.96801715,36.09949941816104,2.0019083430563747
328,Ачинск,Красноярский край,56.253907,90.4794397,56.2694846,90.4953964,1.9928508052013385
567,Новотроицк,Оренбургская область,51.1964202,58.3018192,51.20521645,58.32671530043477,1.9913676338672197
61,Почеп,Брянская область,52.9154851,33.4744058,52.92878,33.454536,1.9899318270134434
535,Окуловка,Новгородская область,58.3910296,33.2901557,58.3740782,33.3009383,1.9869487294180568
17,Свободный,Амурская область,51.3614103,128.1219729,51.377354,128.13475,1.9823576960079687
690,Беломорск,Республика Карелия,64.5378417,34.7799462,64.5216684,34.7625835,1.980790760483978
456,Ногинск,Московская область,55.8686133,38.4622104,55.8553511,38.4411898,1.9736511024991483
246,Петропавловск-Камчатский,Камчатский край,53.036908,158.6559254,53.0199838,158.6471356,1.9715522699748822
147,Нерчинск,Забайкальский край,51.9594977,116.5852383,51.97694,116.588341,1.951107958864064
504,Балахна,Нижегородская область,56.495036,43.5758423,56.4870505,43.6039553,1.940811659867966
709,Сосногорск,Республика Коми,63.5989841,53.876293,63.58523435,53.90040175016682,1.938842819200456
235,Медынь,Калужская область,54.9689785,35.8872168,54.9695,35.857,1.9295398452375474
393,Приозерск,Ленинградская область,61.0330896,30.1587851,61.0385285,30.1248482,1.9248947445912796
866,Поронайск,Сахалинская область,49.238866,143.1008333,49.2216366,143.1015759,1.9165805563755907
1072,Магнитогорск,Челябинская область,53.4072153,58.9791437,53.4242184,58.983136,1.9090815124373877
902,Нижний Тагил,Свердловская область,57.910126,59.9812853,57.905149,59.9508466,1.8814385748977087
153,Вичуга,Ивановская область,57.2044698,41.9132201,57.220222,41.9245606,1.879970458879289
188,Усть-Илимск,Иркутская область,57.9430504,102.7415734,57.959473,102.734192,1.8773301838521628
527,Сергач,Нижегородская область,55.5201515,45.4813231,55.532822,45.4616976,1.8736953887303254
731,Йошкар-Ола,Республика Марий Эл,56.6343662,47.8999706,56.6477914,47.881715511024034,1.8639678200402066
202,Гвардейск,Калининградская область,54.6588378,21.0501388,54.6478265,21.0719431,1.861871180169084
190,Черемхово,Иркутская область,53.1369095,103.0901268,53.148434,103.070145,1.8488745734537977
544,Искитим,Новосибирская область,54.6267603,83.2951244,54.6426269,83.3035676,1.84607018117178
37,Ахтубинск,Астраханская область,48.2752034,46.1906462,48.2877616,46.1744879,1.8383619907259143
414,Балашиха,Московская область,55.796389,37.938283,55.8036225,37.9646488,1.833702687783349
1004,Суворов,Тульская область,54.1343585,36.4807419,54.12236,36.500027,1.832746272395427
109,Урюпинск,Волгоградская область,50.7903789,42.0288513,50.7970972,42.0051866,1.8233964008391523
462,Подольск,Московская область,55.4389322,37.5703482,55.4308841,37.5453056,1.8156850551081145
628,Великие Луки,Псковская область,56.332208,30.5508641,56.342361,30.527922,1.8094468149500682
83,Муром,Владимирская область,55.5630311,42.0231362,55.5738,42.0447,1.8088571847381962
128,Борисоглебск,Воронежская область,51.3655754,42.1008334,51.368015,42.075169,1.8022221561185827
288,Яранск,Кировская область,57.3040326,47.8478737,57.3012512,47.8773055,1.7947483227235552
857,Энгельс,Саратовская область,51.4854003,46.126722,51.5013775,46.1233093,1.7922247092982209
402,Грязи,Липецкая область,52.4874097,39.9331142,52.49612,39.955162,1.779406785244963
441,Красноармейск,Московская область,56.105426,38.140838,56.1210895,38.1457655,1.7682899662193647
368,Щигры,Курская область,51.8786014,36.8910945,51.870821,36.9131896,1.7462043141133343
1087,Юрюзань,Челябинская область,54.854662,58.4226698,54.870075,58.427807,1.7450962629250242
157,Кинешма,Ивановская область,57.4425463,42.168914,57.4431,42.1400999,1.7252927790704098
716,Бахчисарай,Республика Крым,44.7514769,33.8752176,44.7522963,33.8534782,1.7190990884282678
615,Чусовой,Пермский край,58.2974596,57.8193615,58.282055,57.821075,1.7158385431356094
614,Чернушка,Пермский край,56.5160768,56.0763049,56.500682,56.0762788,1.7118244058240473
108,Суровикино,Волгоградская область,48.618917,42.8541163,48.605141,42.844147,1.6981278471162313
997,Ефремов,Тульская область,53.1464766,38.0921657,53.141834,38.116188,1.6832847540625722
187,Усолье-Сибирское,Иркутская область,52.7565808,103.6388109,52.7512013,103.6621625,1.6815444178355923
490,Заполярный,Мурманская область,69.4132852,30.7984312,69.426239,30.819939,1.667777509975833
1064,Карабаш,Челябинская область,55.4852323,60.2358881,55.485809,60.209541,1.6612281143370218
1051,Амурск,Хабаровский край,50.2344147,136.8792444,50.2299352,136.9014652,1.657171075018558
904,Нижняя Тура,Свердловская область,58.6309267,59.8520344,58.618427,59.867397,1.6501009720021846
107,Серафимович,Волгоградская область,49.5663183,42.7360402,49.580608,42.730164,1.644466766977621
508,Володарск,Нижегородская область,56.2169751,43.1596417,56.224304,43.182655,1.639635773297236
870,Холмск,Сахалинская область,47.0408423,142.041688,47.0545875,142.0487125,1.618412705932866
750,Томмот,Республика Саха (Якутия),58.9586859,126.2875462,58.968536,126.266853,1.6146371486684383
697,Петрозаводск,Республика Карелия,61.7891264,34.3596434,61.790039,34.390007,1.599226604136753
324,Туапсе,Краснодарский край,44.1105335,39.0824904,44.0984747,39.0718875,1.5857745076345453
171,Ангарск,Иркутская область,52.544879,103.888543,52.5311117,103.8826109,1.582554310112977
952,Светлоград,Ставропольский край,45.328659,42.8565714,45.3406133,42.8459286,1.5681179503852414
872,Алапаевск,Свердловская область,57.8475571,61.6693817,57.850811,61.695,1.5584764917962177
771,Казань,Республика Татарстан,55.7943584,49.1114975,55.7823547,49.1242266,1.5539896375913063
746,Нюрба,Республика Саха (Якутия),63.2828955,118.3242437,63.286648,118.354149,1.5520581678620669
848,Красный Кут,Саратовская область,50.9598317,46.9712016,50.9459056,46.972462,1.5510265343986138
616,Арсеньев,Приморский край,44.1622031,133.2696209,44.1608008,133.2889113,1.546654021666991
201,Балтийск,Калининградская область,54.6513372,19.9140572,54.6437214,19.8941584,1.5349815578166262
275,Кирово-Чепецк,Кировская область,58.5559424,50.0316848,58.5421963,50.0340889,1.5348474675422172
559,Тара,Омская область,56.9160511,74.3649194,56.902587,74.3698652,1.5269507790431074
24,Каргополь,Архангельская область,61.5009724,38.9636966,61.509121,38.940796,1.5155387914133374
54,Дятьково,Брянская область,53.5958178,34.3551812,53.6003804,34.3335523,1.5147398468922726
942,Ипатово,Ставропольский край,45.7181751,42.8970206,45.719723,42.916286,1.5055194769877016
961,Уварово,Тамбовская область,51.9767841,42.2529799,51.989845,42.258396,1.4989232108188366
221,Черняховск,Калининградская область,54.6244751,21.7969062,54.635533,21.8099822,1.4900468491488832
318,Приморско-Ахтарск,Краснодарский край,46.0515432,38.1704875,46.043181,38.1554803,1.485267892284771
552,Тогучин,Новосибирская область,55.2251631,84.4104118,55.23769,84.402458,1.481424966443491
555,Исилькуль,Омская область,54.9096002,71.2816284,54.904892,71.259987,1.4791956869556822
1100,Чебоксары,Чувашская Республика,56.1438298,47.2489782,56.1307195,47.2449597,1.4789078310638
1046,Димитровград,Ульяновская область,54.2167926,49.6262585,54.2188995,49.6038982,1.4725382601234478
1083,Усть-Катав,Челябинская область,54.9260812,58.152805,54.9307169,58.1743686,1.4710237676007378
525,Саров,Нижегородская область,54.9228268,43.3448089,54.934631,43.334606,1.4655324747493945
405,Задонск,Липецкая область,52.4004179,38.9205032,52.387798,38.92672,1.465301533646534
121,Сокол,Вологодская область,59.4758605,40.1114187,59.462799,40.112858,1.4546463294766734
89,Судогда,Владимирская область,55.9498056,40.8562939,55.95650075,40.87630713906415,1.4513945406272786
439,Королев,Московская область,55.9161773,37.8545415,55.9204898,37.8326289,1.4471483307087079
1092,Урус-Мартан,Чеченская Республика,43.120175,45.539276,43.133102,45.538425,1.4390749774675713
30,Новодвинск,Архангельская область,64.4136851,40.8208143,64.419212,40.793793,1.4356683289652736
608,Пермь,Пермский край,58.0102583,56.2342034,58.0230679,56.232803119037456,1.426748152240623
1113,Рыбинск,Ярославская область,58.0485495,38.8584119,58.050373,38.834637,1.4136018166769841
688,Лагань,Республика Калмыкия,45.3930912,47.3432602,45.392059,47.361282,1.411925152006507
861,Корсаков,Сахалинская область,46.6324545,142.799445,46.632815,142.7810147,1.4078092807100824
768,Заинск,Республика Татарстан,55.299053,52.0062972,55.2866509,52.0056047,1.3797473821658974
661,Стерлитамак,Республика Башкортостан,53.6300864,55.9317089,53.632374,55.952259,1.378668360954324
991,Алексин,Тульская область,54.5083349,37.0478067,54.5028103,37.0667213,1.3669804238446133
837,Тольятти,Самарская область,53.5205348,49.3894028,53.51495,49.407574,1.3523744375909004
470,Сергиев Посад,Московская область,56.3062548,38.1502661,56.3153529,38.1358208,1.3480642490838326
361,Курск,Курская область,51.7303637,36.1925603,51.739433,36.179604,1.3464890486728365
637,Порхов,Псковская область,57.7765219,29.5436626,57.765289,29.551878,1.3406899996817936
438,Коломна,Московская область,55.102814,38.7531002,55.0938743,38.7670121,1.3309958050097317
758,Моздок,Республика Северная Осетия – Алания,43.7471342,44.6569607,43.735584,44.653614,1.3121627284017898
931,Сафоново,Смоленская область,55.1199661,33.2336988,55.1084278,33.2376513,1.3073927333462976
343,Минусинск,Красноярский край,53.7104586,91.6872907,53.700325,91.697235,1.3031152679523736
471,Серпухов,Московская область,54.9226466,37.4033859,54.9155247,37.4195533,1.3017952567010045
442,Красногорск,Московская область,55.8317203,37.3295266,55.821744,37.3404142,1.3011533770063148
600,Краснокамск,Пермский край,58.0822065,55.7479936,58.0833042,55.76998972536403,1.2988576703834835
841,Аткарск,Саратовская область,51.8736062,45.0003247,51.882442,45.012573,1.2931409487507135
181,Нижнеудинск,Иркутская область,54.8968931,99.0314056,54.9084881,99.0302862,1.2912899264744329
76,Киржач,Владимирская область,56.1486863,38.8635701,56.1592229,38.8721255,1.2858556395815586
319,Славянск-на-Кубани,Краснодарский край,45.2603626,38.1259774,45.2490605,38.12280565132716,1.2810250964940828
978,Осташков,Тверская область,57.1456744,33.1115372,57.1557583,33.1013213,1.2794298516148654
919,Севастополь,Севастополь,44.6167013,33.525355,44.6054434,33.5220842,1.2783161252117732
39,Камызяк,Астраханская область,46.110579,48.07333,46.120527,48.0815617,1.2752277587546135
326,Хадыженск,Краснодарский край,44.4122963,39.5320258,44.4231032,39.5369484,1.2636721839058176
910,Реж,Свердловская область,57.3717477,61.3833842,57.370647,61.4042865,1.259173628435748
996,Донской,Тульская область,53.9678944,38.3371824,53.965651,38.3183367,1.2577009818186244
322,Тимашевск,Краснодарский край,45.615923,38.9351837,45.6123531,38.9504299,1.2505161146113102
341,Красноярск,Красноярский край,56.0093879,92.8524806,56.0090968,92.8725147,1.2458312326766394
649,Бирск,Республика Башкортостан,55.4155753,55.5582214,55.4206774,55.5407179,1.2418515842537712
223,Белоусово,Калужская область,55.0956803,36.677629,55.089725,36.6613397,1.2299839078027213
1055,Николаевск-на-Амуре,Хабаровский край,53.1460657,140.7111367,53.138729,140.72493,1.2295957918298552
927,Ельня,Смоленская область,54.5837795,33.1749867,54.5764954,33.1891698,1.2212558510736151
1006,Узловая,Тульская область,53.9730452,38.1763201,53.978512,38.160255,1.2137918053370094
790,Саяногорск,Республика Хакасия,53.1008083,91.4122454,53.0899015,91.4128377,1.21342548497261
1041,Ижевск,Удмуртская Республика,56.852738,53.2114896,56.86051745,53.197730742455306,1.203308301625847
423,Дедовск,Московская область,55.8703276,37.1245043,55.8597808,37.1206449,1.197219593799244
818,Михайлов,Рязанская область,54.2297402,39.0091481,54.230217,39.027538,1.1964659392940875
878,Верхний Тагил,Свердловская область,57.3763758,59.9517653,57.3748048,59.9320354,1.1956079353454567
194,Нальчик,Кабардино-Балкарская Республика,43.4845464,43.60713,43.4769604,43.5966578,1.19392200559487
691,Кемь,Республика Карелия,64.9543539,34.5949263,64.9550895,34.5697446,1.1881876054877447
663,Уфа,Республика Башкортостан,54.734944,55.9578468,54.7261409,55.947499,1.1830420141436908
886,Заречный,Свердловская область,56.8102931,61.3380029,56.8149706,61.3205936,1.1803958426347798
408,Усмань,Липецкая область,52.0442648,39.726401,52.0506929,39.7399996,1.1729059064671443
595,Гремячинск,Пермский край,58.5626082,57.8520572,58.566597,57.833389,1.1699440991279557
352,Курган,Курганская область,55.4443883,65.3161963,55.45435,65.321877,1.1641792561866138
149,Сретенск,Забайкальский край,52.2461454,117.7117842,52.243191,117.695541,1.1536584789306352
888,Ирбит,Свердловская область,57.6838362,63.057675,57.674042,63.063778,1.1479164411223848
10,Славгород,Алтайский край,52.999463,78.6459232,52.9892428,78.646251,1.1366461340471117
242,Таруса,Калужская область,54.7236477,37.1671,54.7293536,37.1815538,1.1242574579523588
406,Лебедянь,Липецкая область,53.0156117,39.143536,53.0126146,39.127593,1.1173923036015077
23,Вельск,Архангельская область,61.066,42.1032789,61.0756446,42.0979582,1.109960507670779
604,Нытва,Пермский край,57.9336725,55.3356084,57.943423,55.3316349,1.1092839193961197
720,Керчь,Республика Крым,45.3562627,36.4674513,45.3534002,36.4538645,1.1083366331464428
779,Нижнекамск,Республика Татарстан,55.6313609,51.8144669,55.6412879,51.8160376,1.1082254434857888
1045,Барыш,Ульяновская область,53.6533992,47.1181134,53.6540758,47.1013737,1.105728764245514
685,Назрань,Республика Ингушетия,43.2257841,44.7645779,43.2320774,44.7540128,1.1056177157751512
1040,Глазов,Удмуртская Республика,58.1359233,52.6635038,58.1401196,52.6464388,1.1050130591618466
539,Холм,Новгородская область,57.145108,31.1787499,57.15407425,31.17085196949452,1.1049672049433485
476,Фрязино,Московская область,55.9590588,38.0410235,55.954618,38.0567691,1.0975052680906014
934,Ярцево,Смоленская область,55.0564732,32.6902302,55.0662279,32.6883609,1.091185685791414
794,Аксай,Ростовская область,47.2676314,39.8756872,47.268696,39.861362,1.0873468031592202
174,Бодайбо,Иркутская область,57.8468636,114.1866287,57.8499525,114.2039967,1.0836029405000753
610,Усолье,Пермский край,59.4277573,56.6837872,59.4180251,56.6830803,1.0829097318181946
243,Юхнов,Калужская область,54.7446445,35.2424346,54.7415766,35.2264393,1.0818737371872835
254,Гурьевск,Кемеровская область - Кузбасс,54.2859263,85.9475985,54.284954,85.931091,1.076938587440039
712,Ухта,Республика Коми,63.5565514,53.7014239,63.5624585,53.684243,1.0747320151277928
250,Черкесск,Карачаево-Черкесская Республика,44.2269425,42.0466704,44.22552875,42.05987514558208,1.0638502355776522
342,Лесосибирск,Красноярский край,58.221681,92.5037872,58.223511,92.48597,1.0629897098582948
185,Тайшет,Иркутская область,55.9405334,98.0030145,55.9385304,98.0196711,1.060958727342388
52,Шебекино,Белгородская область,50.4004883,36.8877889,50.409153,36.894012,1.059617971163236
102,Михайловка,Волгоградская область,50.0708719,43.2401512,50.0796329,43.2343877,1.0574457142676688
532,Валдай,Новгородская область,57.9823766,33.2369436,57.9791414,33.2537994,1.0568591973764272
899,Михайловск,Свердловская область,56.4370039,59.1137316,56.444538,59.124191,1.0560212425695585
584,Кузнецк,Пензенская область,53.1130888,46.605092,53.11946635,46.59347676165702,1.050620549327441
1114,Тутаев,Ярославская область,57.8674993,39.5369627,57.875385,39.527214,1.0493875651453484
804,Красный Сулин,Ростовская область,47.8831311,40.0781298,47.891552,40.071899,1.0452907262642703
867,Северо-Курильск,Сахалинская область,50.6730577,156.1282211,50.6683048,156.1154399,1.0443268998196062
22,Архангельск,Архангельская область,64.5394289,40.5169606,64.543022,40.537121,1.0431782652177766
1012,Заводоуковск,Тюменская область,56.5027463,66.5513613,56.509293,66.539261,1.0398292974188101
457,Одинцово,Московская область,55.6789455,37.263686,55.6711507,37.2727963,1.038047407039835
437,Клин,Московская область,56.3425605,36.7240032,56.3355601,36.7351318,1.0374783158331478
1112,Ростов,Ярославская область,57.2051315,39.4378622,57.2012699,39.422192111506064,1.0368952666128493
734,Инсар,Республика Мордовия,53.8770022,44.3696566,53.867741,44.371407,1.0361724908522918
291,Галич,Костромская область,58.3828191,42.3654013,58.381382,42.347916,1.0317409115570242
272,Вятские Поляны,Кировская область,56.2284817,51.0614855,56.2229946,51.0749038,1.0296967226672196
678,Кизляр,Республика Дагестан,43.8484083,46.7233699,43.8546727,46.7139329,1.0285128421980194
403,Данков,Липецкая область,53.2577411,39.1456184,53.2533095,39.1591798,1.0279428483195894
823,Сасово,Рязанская область,54.3508885,41.9117422,54.35392,41.926643,1.0227794961228316
429,Дубна,Московская область,56.741786,37.1757223,56.7362705,37.1623696,1.0194334204876851
938,Ессентуки,Ставропольский край,44.0446186,42.8588653,44.03756695,42.850761419668814,1.0170604761737085
593,Верещагино,Пермский край,58.0797571,54.6581309,58.0721045,54.6674847,1.0132023901823966
410,Магадан,Магаданская область,59.5681332,150.8084956,59.5604768,150.7988617,1.0095944812804636
49,Новый Оскол,Белгородская область,50.7633747,37.8775484,50.764427,37.863338,1.006282347419666
1115,Углич,Ярославская область,57.5224249,38.3020044,57.526783,38.316689,1.001752739196093
224,Боровск,Калужская область,55.2130096,36.4926251,55.2067186,36.4813883,0.9987929288769312
796,Белая Калитва,Ростовская область,48.1769737,40.8033529,48.1751778,40.7902124,0.9946164507080558
896,Красноуфимск,Свердловская область,56.612387,57.7636637,56.604538,57.771313,0.9903818826007169
873,Арамиль,Свердловская область,56.694632,60.8343125,56.6954649,60.8504536,0.9898625627697477
316,Новокубанск,Краснодарский край,45.1038699,41.0475175,45.1083184,41.0366896,0.98326601683125
1105,Певек,Чукотский автономный округ,69.7016661,170.2999022,69.7028171,170.2746851,0.98109316437562
620,Дальнегорск,Приморский край,44.5539457,135.5662716,44.559457,135.5759241,0.9800345191051906
72,Гороховец,Владимирская область,56.2021036,42.6926111,56.20657,42.679035,0.9755632397152222
73,Гусь-Хрустальный,Владимирская область,55.6198751,40.6579929,55.6149968,40.6708665,0.9735091394784058
877,Богданович,Свердловская область,56.7764795,62.0463679,56.7683407,62.0520774,0.9695552398196442
1095,Канаш,Чувашская Республика,55.507,47.4918273,55.5148161,47.49863071889008,0.9689452569442399
1086,Южноуральск,Челябинская область,54.448927,61.2581158,54.4425364,61.2682731,0.9676067954013802
652,Дюртюли,Республика Башкортостан,55.4848318,54.8524765,55.490616,54.863895,0.964975507893805
645,Агидель,Республика Башкортостан,55.8999056,53.9220144,55.899276,53.9374202,0.9629591824745298
597,Добрянка,Пермский край,58.469685,56.4130737,58.46192485,56.42029448825272,0.9596455291569442
895,Красноуральск,Свердловская область,58.348651,60.0408764,58.357063,60.037445,0.9565557237383254
303,Апшеронск,Краснодарский край,44.4584006,39.7299824,44.4618046,39.741048,0.9563068856998079
263,Осинники,Кемеровская область - Кузбасс,53.5988055,87.3371272,53.606995,87.332893,0.9525224731996207
116,Грязовец,Вологодская область,58.8757553,40.2485362,58.8841692,40.2515006,0.9509672047812242
703,Воркута,Республика Коми,67.4974082,64.061034,67.4948535,64.0399469,0.9413392518964406
846,Калининск,Саратовская область,51.4993591,44.4710435,51.499947,44.484581,0.9393566562073407
289,Буй,Костромская область,58.4733277,41.5306822,58.4816821,41.532956,0.9383250170738217
675,Избербаш,Республика Дагестан,42.5650962,47.8710051,42.5710804,47.862999,0.9341486869099752
435,Истра,Московская область,55.9062267,36.8601454,55.9145993,36.8595482,0.9317343366914753
177,Железногорск-Илимский,Иркутская область,56.5847888,104.114275,56.577915,104.12294,0.9304808819324121
90,Суздаль,Владимирская область,56.4274441,40.4525692,56.4193908,40.4487893,0.9251640961960134
588,Сердобск,Пензенская область,52.4697595,44.2122414,52.461506,44.213924,0.9247989020640064
354,Макушино,Курганская область,55.2153947,67.2451705,55.208321,67.252739,0.9215351676440116
766,Буинск,Республика Татарстан,54.9641538,48.2901209,54.9722866,48.2928964,0.921515453484222
634,Опочка,Псковская область,56.710725,28.6717519,56.71167,28.656818,0.9174590805169518
477,Химки,Московская область,55.888657,37.4303702,55.8892847,37.4449896,0.9143036045580603
975,Кувшиново,Тверская область,57.0265168,34.1676009,57.0314657,34.1796637,0.9141520066373653
1054,Комсомольск-на-Амуре,Хабаровский край,50.5498936,137.0079408,50.550877,137.020782,0.9138376615375978
849,Маркс,Саратовская область,51.7133337,46.7400339,51.7069911,46.7483653,0.9093518303062367
480,Чехов,Московская область,55.1508011,37.4533252,55.1426603,37.4545328,0.9084624405551056
459,Орехово-Зуево,Московская область,55.8151421,38.9869822,55.8083278,38.9790038,0.9069958057070744
258,Ленинск-Кузнецкий,Кемеровская область - Кузбасс,54.6674492,86.1797324,54.665443,86.166115,0.9036745762429726
1094,Алатырь,Чувашская Республика,54.8397989,46.5721997,54.84582955,46.5627484284573,0.903261366079567
140,Эртиль,Воронежская область,51.830932,40.8074182,51.8367188,40.7982804,0.899041967761463
240,Спас-Деменск,Калужская область,54.409922,34.0189631,54.4118,34.032398,0.8941264474245845
123,Устюжна,Вологодская область,58.8383117,36.4425478,58.8428204,36.4296982,0.893255962237964
850,Новоузенск,Саратовская область,50.455199,48.1413153,50.462326,48.135532,0.8919891074541617
776,Менделеевск,Республика Татарстан,55.895169,52.3143347,55.8878706,52.308443,0.8908233111431993
178,Зима,Иркутская область,53.920693,102.0491772,53.928402,102.052727,0.8881547174986768
627,Фокино,Приморский край,42.9706317,132.4110196,42.9772084,132.404905,0.8844587685431686
11,Яровое,Алтайский край,52.9252146,78.5729775,52.919704,78.563568,0.8794175952480322
625,Спасск-Дальний,Приморский край,44.5901175,132.8157288,44.5980135,132.815701,0.8779979002017189
482,Щелково,Московская область,55.9233801,37.9783707,55.9206499,37.9915576,0.8759009260614172
62,Севск,Брянская область,52.1483358,34.4918415,52.156021,34.494572,0.8746247775245808
111,Бабаево,Вологодская область,59.3892583,35.9377058,59.3969942,35.940425,0.8738598072989028
943,Кисловодск,Ставропольский край,43.9052044,42.7168721,43.9128743,42.7192186,0.8733242170631184
901,Нижние Серги,Свердловская область,56.6544959,59.2953035,56.6619,59.30003,0.8725044255259912
695,Медвежьегорск,Республика Карелия,62.9127626,34.4568489,62.915024,34.473339,0.8719435055498225
736,Краснослободск,Республика Мордовия,54.4248207,43.7845011,54.41722155,43.78771247915593,0.87015427227
840,Аркадак,Саратовская область,51.938831,43.4999221,51.942913,43.489098,0.8698024959643678
843,Балашов,Саратовская область,51.5388697,43.1839757,51.537084,43.1717621,0.86774948575551
141,Биробиджан,Еврейская автономная область,48.7946446,132.9217207,48.7881668,132.9282082,0.8629528556085921
884,Дегтярск,Свердловская область,56.7048206,60.079138,56.698341,60.086807,0.8592401624314706
38,Знаменск,Астраханская область,48.5866291,45.7368019,48.588829,45.725632,0.8572162442389183
960,Тамбов,Тамбовская область,52.7213154,41.452264,52.72879,41.45536,0.856890258059735
805,Миллерово,Ростовская область,48.9260077,40.3984087,48.9196264,40.391854,0.8560611140085348
788,Абаза,Республика Хакасия,52.6516647,90.0885686,52.6510546,90.101159,0.8520270372019665
6,Змеиногорск,Алтайский край,51.1581094,82.1872547,51.1544658,82.1979928,0.8514578867858132
605,Оса,Пермский край,57.2889515,55.4688668,57.2829207,55.4602059,0.8488771552375842
330,Бородино,Красноярский край,55.9054121,94.9020967,55.8997187,94.8930452,0.8480259389356116
923,Демидов,Смоленская область,55.2682105,31.5062809,55.2643778,31.5178326,0.846899474024505
636,Печоры,Псковская область,57.8145817,27.622259,57.813305,27.608185,0.8456080415898272
635,Остров,Псковская область,57.3451528,28.3437593,57.344631,28.357817,0.8454363496998251
719,Евпатория,Республика Крым,45.190629,33.367634,45.1980721,33.36944258725357,0.8396810081767079
347,Ужур,Красноярский край,55.3141969,89.8333918,55.3197221,89.8424197,0.8389041765199242
424,Дзержинский,Московская область,55.6240869,37.8440276,55.6309186,37.8496653,0.8380502594110246
531,Боровичи,Новгородская область,58.3840197,33.9175929,58.389009,33.9068275,0.8375673935719691
501,Североморск,Мурманская область,69.0766801,33.4177759,69.069168,33.416656,0.8364907700027167
453,Можайск,Московская область,55.5069259,36.024043,55.5016383,36.0334703,0.8355520889213875
1066,Касли,Челябинская область,55.8868784,60.7421663,55.8904193,60.7538518,0.8282584573890397
1062,Еманжелинск,Челябинская область,54.7554548,61.3243477,54.759121,61.313198,0.8234079084698814
360,Железногорск,Курская область,52.3380202,35.3516867,52.3306193,35.3515011,0.8230391507368365
871,Южно-Сахалинск,Сахалинская область,46.9591631,142.737976,46.9574273,142.727438,0.8227309034462846
231,Кондрово,Калужская область,54.7959473,35.9274842,54.8028,35.9322,0.819749451914814
715,Армянск,Республика Крым,46.1059307,33.6910012,46.113261,33.6904091,0.8163692035527957
1097,Мариинский Посад,Чувашская Республика,56.111923,47.7142942,56.1178077,47.7220654,0.8125737529416746
903,Нижняя Салда,Свердловская область,58.0748272,60.7025418,58.071352,60.7146772,0.8115190573674568
744,Мирный,Республика Саха (Якутия),62.536232,113.9667728,62.541077,113.978584,0.8105870436037713
754,Ардон,Республика Северная Осетия – Алания,43.1755152,44.2955775,43.1758059,44.3055486,0.8092017823771581
706,Инта,Республика Коми,66.0367316,60.1152961,66.039749,60.13158,0.8082947271660897
19,Тында,Амурская область,55.1546441,124.7468904,55.149694,124.7375884,0.8076329774761807
801,Зерноград,Ростовская область,46.8495958,40.312837,46.844845,40.304813,0.8071255373088582
655,Межгорье,Республика Башкортостан,54.2397689,57.9614547,54.2410247,57.9736815,0.8066840796762561
105,Палласовка,Волгоградская область,50.0500944,46.8804277,50.045901,46.8896382,0.8061878136510959
15,Зея,Амурская область,53.7340088,127.265787,53.7403584,127.2716246,0.8036848643556149
57,Карачев,Брянская область,53.1296524,34.9888727,53.124191,34.996758,0.8034883206785328
510,Выкса,Нижегородская область,55.3207727,42.1678834,55.318774,42.1800408,0.8006554608690691
259,Мариинск,Кемеровская область - Кузбасс,56.2127383,87.7454924,56.206299,87.751259,0.7999106713358655
310,Кореновск,Краснодарский край,45.4641703,39.458949,45.4635863,39.4487565,0.797536106391911
982,Торжок,Тверская область,57.04133,34.9602344,57.040794,34.973373,0.7970412339947147
892,Качканар,Свердловская область,58.7051762,59.4839155,58.6981697,59.4810114,0.7969434820505201
669,Кяхта,Республика Бурятия,50.346543,106.4533516,50.353176,106.44915,0.7955266570834248
935,Благодарный,Ставропольский край,45.0989782,43.4306455,45.100857,43.420868,0.7953580238801818
340,Кодинск,Красноярский край,58.6032644,99.1797962,58.596329,99.182915,0.792065311844845
295,Мантурово,Костромская область,58.3265441,44.757494,58.333271,44.761791,0.7889428047134148
930,Рудня,Смоленская область,54.9441093,31.0794806,54.9471458,31.0906286,0.7879741496231025
129,Бутурлиновка,Воронежская область,50.8311818,40.5976923,50.828491,40.587322,0.787404865700324
110,Фролово,Волгоградская область,49.7649148,43.6648641,49.7645711,43.6539516,0.7847091763868471
282,Омутнинск,Кировская область,58.6698913,52.1894564,58.668304,52.17625,0.7837157484682251
349,Шарыпово,Красноярский край,55.5389739,89.1801044,55.5329127,89.1864204,0.7824262797187593
561,Абдулино,Оренбургская область,53.6778906,53.6472483,53.6828,53.655701,0.7796874837605968
145,Краснокаменск,Забайкальский край,50.0929703,118.0323936,50.096992,118.041344,0.7794971209620446
705,Емва,Республика Коми,62.5965137,50.8732125,62.598297,50.887928,0.7787543912904851
999,Киреевск,Тульская область,53.9319555,37.9220351,53.926712,37.929916,0.7785643142138674
646,Баймак,Республика Башкортостан,52.5912896,58.3110998,52.597919,58.30756,0.7749619170237105
26,Котлас,Архангельская область,61.2528972,46.633242,61.252151,46.647629,0.7738665395781773
297,Нея,Костромская область,58.2943349,43.8780948,58.288948,43.886444,0.7725919597872508
558,Омск,Омская область,54.9848566,73.3674517,54.991375,73.371529,0.7700762963288788
333,Енисейск,Красноярский край,58.4485261,92.1651083,58.4532212,92.1748169,0.7691650498449264
980,Старица,Тверская область,56.514876,34.9336396,56.5081105,34.9314738,0.7639347979195601
443,Краснозаводск,Московская область,56.4409979,38.2320307,56.440507,38.244339,0.7585386070383888
564,Гай,Оренбургская область,51.4649189,58.4436875,51.471443,58.440517,0.7579608028394711
1043,Можга,Удмуртская Республика,56.4427774,52.2137886,56.44903635,52.21859474400328,0.756054319141168
237,Мосальск,Калужская область,54.4824939,34.9872239,54.487293,34.978954,0.7550702848496335
1050,Ульяновск,Ульяновская область,54.3079415,48.3748487,54.3107593,48.3642771,0.7539871421284567
91,Юрьев-Польский,Владимирская область,56.4937757,39.6680539,56.4971948,39.67864,0.7528265077319108
755,Беслан,Республика Северная Осетия – Алания,43.1937529,44.5338707,43.1875572,44.5375689,0.7513408309618931
662,Туймазы,Республика Башкортостан,54.5999224,53.6950623,54.606537,53.6974004,0.7507682537450697
58,Клинцы,Брянская область,52.7529119,32.233911,52.758511,32.240097,0.7489487339494382
373,Выборг,Ленинградская область,60.7130801,28.7328336,60.709217,28.744051,0.7462359353156202
821,Ряжск,Рязанская область,53.7067584,40.0522274,53.708878,40.062984,0.7461642443488511
984,Удомля,Тверская область,57.8787314,35.0167348,57.877998,35.0042,0.7455857225305054
763,Бавлы,Республика Татарстан,54.4062891,53.2458065,54.4030866,53.2357016,0.744669734659645
67,Унеча,Брянская область,52.8461199,32.6757629,52.8451,32.6867,0.7432153103566498
378,Кингисепп,Ленинградская область,59.3740435,28.6112444,59.3743982,28.5981591,0.7422769179352172
20,Циолковский,Амурская область,51.762481,128.1219846,51.7632244,128.13269628906585,0.7418040579545163
514,Заволжье,Нижегородская область,56.6404286,43.3872492,56.639992,43.399353,0.7416834979021185
126,Бобров,Воронежская область,51.0901649,40.0318256,51.0967999,40.0307798,0.741384472328797
506,Бор,Нижегородская область,56.3565458,44.0646481,56.3598289,44.0542641,0.7365153274814643
548,Купино,Новосибирская область,54.366055,77.2973368,54.364929,77.30854,0.7365036877169209
144,Борзя,Забайкальский край,50.3876058,116.5234779,50.3851808,116.5330685,0.7314754941722894
267,Тайга,Кемеровская область - Кузбасс,56.0622131,85.6207182,56.065071,85.631325,0.7311138110553671
633,Новосокольники,Псковская область,56.3408431,30.1527573,56.347385,30.152925,0.727499497053062
565,Кувандык,Оренбургская область,51.4783857,57.3612636,51.478756,57.350796,0.7260812775186345
1093,Шали,Чеченская Республика,43.1488691,45.9009629,43.153942,45.906578,0.7250348127223362
830,Нефтегорск,Самарская область,52.7972914,51.1637392,52.80381,51.163864,0.7248838044200075
227,Жуков,Калужская область,55.0301833,36.7394903,55.0338,36.7489,0.7220280273708741
603,Лысьва,Пермский край,58.0995875,57.8086825,58.09963345,57.796450638987736,0.7187660268631357
1075,Нязепетровск,Челябинская область,56.0536895,59.6097202,56.055508,59.598629,0.7177422981603437
554,Чулым,Новосибирская область,55.0906867,80.9592508,55.09,80.970459,0.7173104929323593
683,Магас,Республика Ингушетия,43.1688611,44.8131207,43.1666497,44.8048191,0.7167626277835165
775,Мамадыш,Республика Татарстан,55.7150413,51.4129016,55.7090757,51.4089032,0.709055553036887
124,Харовск,Вологодская область,59.9479423,40.2000298,59.9533237,40.2068249,0.7079658181527158
296,Нерехта,Костромская область,57.4543369,40.5723598,57.460655,40.573799,0.7077951895861594
979,Ржев,Тверская область,56.262881,34.3291002,56.2565207,34.328649,0.707781880297472
380,Кировск,Ленинградская область,59.8754216,30.981364,59.8813954,30.9855331,0.7038174969331094
81,Лакинск,Владимирская область,56.0180587,39.956551,56.015093,39.946558,0.7032101269365555
698,Питкяранта,Республика Карелия,61.5757191,31.4640557,61.5717807,31.4744211,0.7020041644787
228,Калуга,Калужская область,54.5059848,36.2516245,54.5101087,36.2598115,0.699735212281226
284,Слободской,Кировская область,58.7311574,50.1669249,58.7277816,50.1771234,0.6981473538300316
966,Весьегонск,Тверская область,58.6582598,37.2567558,58.6637264,37.2626496,0.6969022241296097
332,Дудинка,Красноярский край,69.4031364,86.1907218,69.406067,86.175072,0.6934701295602722
969,Зубцов,Тверская область,56.1760868,34.5825515,56.170071,34.585182,0.6884592126699567
143,Балей,Забайкальский край,51.5823759,116.6379549,51.578789,116.646042,0.6865403533398462
858,Александровск-Сахалинский,Сахалинская область,50.8974378,142.1578559,50.9013548,142.1654195993644,0.6863410776423089
305,Белореченск,Краснодарский край,44.7651876,39.8781494,44.7614149,39.8712943,0.6847621094257917
941,Изобильный,Ставропольский край,45.3684296,41.708702,45.3740796,41.7121154,0.6824928285317048
672,Буйнакск,Республика Дагестан,42.8214424,47.1165263,42.8260906,47.1219624,0.6809516084433703
0,Алейск,Алтайский край,52.4922513,82.7793606,52.4970221,82.7730755,0.6800490088629888
1049,Сенгилей,Ульяновская область,53.958964,48.7768269,53.9588733,48.7872182,0.6799071302728448
484,Электросталь,Московская область,55.7847291,38.4447045,55.7903785,38.4405711,0.679263276573078
407,Липецк,Липецкая область,52.610249,39.5947883,52.6041877,39.5936899,0.6780546728921546
573,Болхов,Орловская область,53.4438496,36.0076833,53.448994,36.002232,0.6764236266079491
234,Малоярославец,Калужская область,55.0177123,36.4633603,55.012181,36.4590246,0.6743137738347741
31,Няндома,Архангельская область,61.6654674,40.2062947,61.6612985,40.1970404,0.6733889800587245
468,Рошаль,Московская область,55.6632776,39.8656147,55.6583239,39.8717137,0.6706394366856816
497,Оленегорск,Мурманская область,68.1422058,33.2669407,68.140732,33.282597,0.6685618858021866
854,Саратов,Саратовская область,51.533557,46.034257,51.53952715,46.03338615081432,0.666577276286772
668,Закаменск,Республика Бурятия,50.372713,103.286699,50.377804,103.291527,0.6615777699400411
738,Саранск,Республика Мордовия,54.1809332,45.1862632,54.18671,45.18383,0.6615756287926835
160,Наволоки,Ивановская область,57.4679066,41.9608002,57.4737882,41.962231,0.6595759079698046
968,Западная Двина,Тверская область,56.2566492,32.0805315,56.2588518,32.0706461,0.6578537696791151
879,Верхняя Пышма,Свердловская область,56.9758903,60.5650383,56.9724682,60.5738926,0.6578245992539804
924,Десногорск,Смоленская область,54.146457,33.2833222,54.1516661,33.2881028,0.6575949240032348
915,Сысерть,Свердловская область,56.5005715,60.8190003,56.5030175,60.8093215,0.6532937678301071
545,Карасук,Новосибирская область,53.7343189,78.0422967,53.73447,78.032372,0.6530138641687903
16,Райчихинск,Амурская область,49.7941615,129.4112492,49.7967994,129.4031691,0.6499303226049767
1106,Гаврилов-Ям,Ярославская область,57.3091058,39.8546444,57.3032827,39.8537697,0.6496269914145079
665,Янаул,Республика Башкортостан,56.2650146,54.929907,56.27076,54.931702,0.6484027472716685
98,Котельниково,Волгоградская область,47.6310259,43.1330872,47.6332274,43.14109,0.6477137570762662
881,Верхняя Тура,Свердловская область,58.3643685,59.8265235,58.3605,59.81823,0.6473270481366165
641,Себеж,Псковская область,56.2908554,28.4724326,56.2893393,28.4825575,0.6471694622052516
632,Новоржев,Псковская область,57.029807,29.3433083,57.031181,29.332918,0.6470289370535922
1084,Чебаркуль,Челябинская область,54.9818567,60.3773121,54.977795,60.37009,0.6452598877503081
386,Мурино,Ленинградская область,60.044862,30.4571456,60.046193,30.4458901,0.6422023698232399
96,Калач-на-Дону,Волгоградская область,48.6889024,43.5306303,48.692699,43.524063,0.6407791622715957
199,Чегем,Кабардино-Балкарская Республика,43.5671525,43.5865792,43.57070415,43.59283554179869,0.64033565050452
541,Барабинск,Новосибирская область,55.35146,78.3464506,55.3567611,78.350348,0.6388718231231433
277,Котельнич,Кировская область,58.3034832,48.3475597,58.3053524,48.3372596,0.636641038743502
728,Ялта,Республика Крым,44.4953612,34.166308,44.4970713,34.1586871,0.6336563329107777
795,Батайск,Ростовская область,47.1383299,39.7507179,47.138527,39.742348,0.6334622279909192
983,Торопец,Тверская область,56.5012188,31.6355466,56.496479,31.641077,0.6268831577000644
94,Дубовка,Волгоградская область,49.0554742,44.8270085,49.06052,44.830776,0.6246263971254098
418,Видное,Московская область,55.551725,37.7061984,55.5571496,37.7087142,0.6235963548654738
629,Гдов,Псковская область,58.7432429,27.8264809,58.743066,27.8156854,0.6231710574619417
255,Калтан,Кемеровская область - Кузбасс,53.5210919,87.2771636,53.519459,87.286179,0.6230485747695584
959,Рассказово,Тамбовская область,52.6538833,41.874285,52.658699,41.879002,0.6228708166485011
1063,Златоуст,Челябинская область,55.1714905,59.6725549,55.1674213,59.6792625,0.6214529526497837
954,Жердевка,Тамбовская область,51.8422192,41.4617687,51.843933,41.470367,0.6206665308733543
729,Волжск,Республика Марий Эл,55.8623156,48.3715083,55.8636579,48.3618598,0.6202885395364443
75,Карабаново,Владимирская область,56.3131822,38.7034257,56.3084431,38.6981274,0.6200670593130295
553,Черепаново,Новосибирская область,54.2206476,83.3724521,54.226101,83.370468,0.6199560821748791
673,Дагестанские Огни,Республика Дагестан,42.1152296,48.1939354,42.1152434,48.1864201,0.6198948207292821
27,Мезень,Архангельская область,65.8398078,44.2532273,65.843956,44.244141,0.6194638439000906
166,Фурманов,Ивановская область,57.2539276,41.1054432,57.248756,41.10923,0.6185251927216396
865,Оха,Сахалинская область,53.5867839,142.9412411,53.5891082,142.9497542,0.6184873977685854
819,Новомичуринск,Рязанская область,54.0376572,39.74654,54.043011,39.744011,0.617793669405297
236,Мещовск,Калужская область,54.3191471,35.2816918,54.31521515,35.28841228898365,0.6173771029190628
835,Самара,Самарская область,53.1950306,50.1069518,53.198627,50.113987,0.6160703794872162
229,Киров,Калужская область,54.0790111,34.3076201,54.074322,34.302608,0.6154500705394109
137,Поворино,Воронежская область,51.1954419,42.2472726,51.199276,42.24094,0.6135643005218054
375,Гатчина,Ленинградская область,59.565237,30.1282473,59.5706273,30.1305083,0.6127525970012433
676,Каспийск,Республика Дагестан,42.8916007,47.6367066,42.8881414,47.6424676,0.6068281566458271
325,Усть-Лабинск,Краснодарский край,45.2227359,39.6929577,45.2178027,39.6896725,0.6058974826483553
920,Велиж,Смоленская область,55.6057916,31.1856206,55.6045223,31.1949976,0.6056738030487302
1090,Гудермес,Чеченская Республика,43.3519142,46.1035645,43.35696145,46.10078636190259,0.6045088685244955
666,Бабушкин,Республика Бурятия,51.7112755,105.8673219,51.7161749,105.8635328,0.6041045439285675
491,Кандалакша,Мурманская область,67.1567974,32.4143218,67.151442,32.4130551,0.5979990094940114
1116,Ярославль,Ярославская область,57.6215477,39.8977411,57.6263877,39.8933705,0.5977985964232025
239,Сосенский,Калужская область,54.0566016,35.9621646,54.0516143,35.9589929,0.5919463074370656
1096,Козловка,Чувашская Республика,55.8406025,48.2577735,55.8414764,48.2484231,0.5918236553824043
726,Феодосия,Республика Крым,45.0318393,35.3824259,45.033669,35.3753628,0.5911448374236037
382,Кудрово,Ленинградская область,59.9075226,30.5121008,59.9025191,30.5154613,0.5870679349584483
596,Губаха,Пермский край,58.8371721,57.554533,58.842407,57.555058,0.5828775367538805
1065,Карталы,Челябинская область,53.0536197,60.6478408,53.053261,60.639172,0.5807584812035114
563,Бузулук,Оренбургская область,52.7881277,52.2624877,52.788502,52.253899,0.5790569788166685
359,Дмитриев-Льговский,Курская область,52.1268464,35.0739038,52.1217424,35.07538926047222,0.5765278270369348
451,Лыткарино,Московская область,55.5778163,37.9033507,55.5822477,37.9080217,0.5735816587178334
313,Крымск,Краснодарский край,44.9344404,37.9855795,44.9295889,37.9880177,0.5725892652896803
139,Семилуки,Воронежская область,51.6951644,39.0190454,51.690403,39.022186,0.5719886389181977
215,Правдинск,Калининградская область,54.4430986,21.0085269,54.447144,21.01399,0.5719426885529932
810,Ростов-на-Дону,Ростовская область,47.2224566,39.718803,47.2213858,39.7114196,0.5701596383431695
1108,Любим,Ярославская область,58.3620228,40.686841,58.35762,40.691818,0.5691745028000279
63,Сельцо,Брянская область,53.3739884,34.1059172,53.369976,34.100616,0.5681025100904017
911,Североуральск,Свердловская область,60.1533109,59.9525245,60.15016,59.960517,0.5642734634241521
152,Шилка,Забайкальский край,51.8497035,116.0334461,51.851639,116.025894,0.5616024074471934
460,Павловский Посад,Московская область,55.7807244,38.6596983,55.7813357,38.6507838,0.5615640079391883
926,Духовщина,Смоленская область,55.1950257,32.401252,55.1907803,32.4060434,0.5615472573355742
308,Гулькевичи,Краснодарский край,45.3605121,40.6918389,45.3565119,40.6962256,0.561537276875922
426,Долгопрудный,Московская область,55.9385999,37.5101021,55.9341491,37.5142417,0.5580360693362586
981,Тверь,Тверская область,56.8586059,35.9116761,56.858675,35.9208284,0.5564304574034358
642,Адыгейск,Республика Адыгея,44.878414,39.190289,44.8833775,39.1909625,0.5544611707079772
803,Константиновск,Ростовская область,47.5773717,41.0967445,47.582352,41.097084,0.554369278241628
186,Тулун,Иркутская область,54.557162,100.5780603,54.562096,100.579216,0.5536730500134647
467,Реутов,Московская область,55.7582621,37.8618553,55.7622453,37.856555,0.5532961935348499
769,Зеленодольск,Республика Татарстан,55.8466651,48.5010954,55.8477605,48.5097031,0.5509679893254892
1059,Бакал,Челябинская область,54.9406399,58.8051698,54.936657,58.810249,0.549001602610329
311,Краснодар,Краснодарский край,45.0401604,38.9759647,45.0352566,38.9764814,0.546787053877318
651,Давлеканово,Республика Башкортостан,54.2226707,55.0312373,54.218571,55.026661,0.5443602850828739
148,Петровск-Забайкальский,Забайкальский край,51.2748592,108.846681,51.275215,108.854485,0.5442985883015763
782,Чистополь,Республика Татарстан,55.3699139,50.6285784,55.3714831,50.6367311,0.5439019790562294
372,Всеволожск,Ленинградская область,60.0191278,30.6456718,60.024006,30.646042,0.5428209304754312
721,Красноперекопск,Республика Крым,45.9537576,33.7921939,45.9565346,33.7979467,0.541411758924495
713,Алупка,Республика Крым,44.4164605,34.0444797,44.4204046,34.0483715,0.5365394866297624
745,Нерюнгри,Республика Саха (Якутия),56.6599953,124.7202403,56.6579435,124.7123042,0.5359965627317455
283,Орлов,Кировская область,58.5389776,48.8927723,58.5363174,48.8850765,0.5357103412476506
1091,Курчалой,Чеченская Республика,43.2046547,46.0889364,43.20005,46.090786,0.5335159441107085
14,Завитинск,Амурская область,50.1064111,129.4391813,50.111154,129.4402341,0.5327036396141133
120,Никольск,Вологодская область,59.5351837,45.4576137,59.5304186,45.4585029,0.5322214428292751
1071,Кыштым,Челябинская область,55.7061276,60.5563781,55.709923,60.551208,0.5319951142977232
388,Новая Ладога,Ленинградская область,60.1100135,32.3141203,60.1052425,32.3147626,0.5317037227128436
963,Бежецк,Тверская область,57.7860089,36.6904983,57.781357,36.692535,0.5311712510329474
707,Микунь,Республика Коми,62.3579068,50.0719503,62.358238,50.08218,0.5290159230152389
218,Светлый,Калининградская область,54.6772897,20.1357595,54.673355,20.131153,0.5283362751983912
1077,Пласт,Челябинская область,54.3692764,60.8151894,54.369812,60.807091,0.5279612657136451
95,Жирновск,Волгоградская область,50.9768814,44.7858202,50.978779,44.778908,0.5279285179988421
687,Городовиковск,Республика Калмыкия,46.0875083,41.935537,46.082851,41.934269,0.5270206742439535
214,Полесск,Калининградская область,54.8625126,21.0998067,54.860252,21.107027,0.5260363941549373
990,Томск,Томская область,56.4845804,84.9481582,56.488712,84.952324,0.5258054590967511
784,Кызыл,Республика Тыва,51.7191047,94.4376882,51.7190995,94.4300627,0.5252995631362647
898,Лесной,Свердловская область,58.6348516,59.7981565,58.63644,59.789658,0.5225981592107725
574,Дмитровск,Орловская область,52.5054851,35.1415009,52.509418,35.145725,0.5224731743038449
570,Соль-Илецк,Оренбургская область,51.1633736,54.9896726,51.161289,54.996372,0.5215088201552445
955,Кирсанов,Тамбовская область,52.6506335,42.7286445,52.654755,42.72496,0.5213466009048708
1070,Куса,Челябинская область,55.3386053,59.4385778,55.336521,59.445938,0.5199746735098609
299,Чухлома,Костромская область,58.753421,42.6884958,58.7560751,42.6810952,0.5189353459187566
465,Пущино,Московская область,54.8324412,37.6210346,54.8347213,37.6139685,0.5187176972983663
210,Неман,Калининградская область,55.0316524,22.0324064,55.0359656,22.0293578,0.5174587276280626
799,Донецк,Ростовская область,48.3350706,39.945891,48.3382864,39.9509488,0.5173331313330013
833,Отрадный,Самарская область,53.3800848,51.3438605,53.376175,51.348053,0.516084916502178
1079,Сим,Челябинская область,54.9907827,57.6900155,54.9872705,57.6847437,0.5153953576907678
479,Черноголовка,Московская область,56.0100707,38.3792047,56.0061165,38.3835224,0.5151424032675777
521,Нижний Новгород,Нижегородская область,56.3240627,44.0053913,56.328571,44.003506,0.5145992459988658
631,Невель,Псковская область,56.0201973,29.9239983,56.017616,29.917128,0.5144886541609206
416,Бронницы,Московская область,55.4255379,38.264145,55.4219938,38.2590612,0.5081530560427048
887,Ивдель,Свердловская область,60.6944496,60.4245069,60.6973287,60.4172583,0.5080530020208532
425,Дмитров,Московская область,56.3477457,37.526672,56.3450695,37.5200723,0.5039267266052841
269,Топки,Кемеровская область - Кузбасс,55.2764707,85.6152619,55.2751962,85.6228741,0.5025492864159162
815,Шахты,Ростовская область,47.7085287,40.2159846,47.7119167,40.2115699,0.5010291459141641
1061,Верхний Уфалей,Челябинская область,56.0487158,60.2318886,56.052029,60.226448,0.49987081495084484
654,Кумертау,Республика Башкортостан,52.7564939,55.7970197,52.760975,55.796482,0.49958759710162576
869,Углегорск,Сахалинская область,49.0815774,142.0692639,49.079296,142.0633622,0.4991116728619691
913,Среднеуральск,Свердловская область,56.9918901,60.4771018,56.991631,60.46888,0.498864122393586
1067,Катав-Ивановск,Челябинская область,54.7521438,58.1983648,54.753479,58.205784,0.4987108792883697
609,Соликамск,Пермский край,59.6482998,56.771009,59.649437,56.779594,0.4986608105957067
686,Сунжа,Республика Ингушетия,43.3204196,45.0476331,43.3183664,45.05310873784765,0.4983453989094286
783,Ак-Довурак,Республика Тыва,51.178452,90.5985129,51.174081,90.5999914,0.49684109242991603
1110,Переславль-Залесский,Ярославская область,56.7360544,38.8543617,56.7366104,38.8462821,0.4966348003087752
245,Елизово,Камчатский край,53.1830375,158.3883548,53.1864972,158.3836712,0.4953660620575972
422,Голицыно,Московская область,55.6190582,36.9856793,55.6149602,36.9887625,0.49510108503901284
814,Цимлянск,Ростовская область,47.6477448,42.0931505,47.650585,42.098232,0.4946031303572043
809,Пролетарск,Ростовская область,46.7038963,41.727594,46.700161,41.724079,0.49432704958097873
590,Сурск,Пензенская область,53.0761357,45.6910796,53.072903,45.686054,0.49185719837015895
195,Нарткала,Кабардино-Балкарская Республика,43.5578075,43.8575925,43.5566193,43.8517142,0.4917630613648714
142,Облучье,Еврейская автономная область,49.0189345,131.0540102,49.0145149,131.0538038,0.49166755148531754
66,Трубчевск,Брянская область,52.5791734,33.7660547,52.5835,33.767467,0.4904680797691199
69,Александров,Владимирская область,56.391819,38.7111123,56.3962287,38.7111103,0.4903362834739174
1002,Плавск,Тульская область,53.7096415,37.2862352,53.7068732,37.2920333,0.490283542448234
503,Арзамас,Нижегородская область,55.3945814,43.8408141,55.3989463,43.8408129,0.48535474122577127
993,Богородицк,Тульская область,53.7701014,38.1225152,53.773571,38.126965,0.48410282152257134
357,Шумиха,Курганская область,55.2280246,63.2901272,55.228207,63.282501,0.484045454971587
643,Майкоп,Республика Адыгея,44.6098268,40.1006606,44.6062079,40.104053,0.483785561192141
900,Невьянск,Свердловская область,57.49131,60.2183429,57.4924036,60.2105408,0.481837445045091
656,Мелеуз,Республика Башкортостан,52.9589532,55.9282838,52.96328,55.928612,0.4816201425480264
757,Дигора,Республика Северная Осетия – Алания,43.1567628,44.1549483,43.160561,44.157784,0.48091215427409245
538,Старая Русса,Новгородская область,57.990737,31.3554897,57.9898923,31.3634905,0.4808324036489441
432,Зарайск,Московская область,54.762456,38.8850978,54.7585694,38.8818137,0.4807987492020976
575,Ливны,Орловская область,52.4284558,37.6039506,52.4253859,37.6089,0.4786895526601866
1034,Тюмень,Тюменская область,57.1529744,65.5344099,57.153534,65.542274,0.47835954237178524
962,Андреаполь,Тверская область,56.6506724,32.2620163,56.646801,32.26532,0.4755009997780539
85,Покров,Владимирская область,55.9166398,39.1734526,55.9151547,39.16632666876916,0.47376171331375255
204,Гусев,Калининградская область,54.5915455,22.1942445,54.592144,22.2015209,0.47348977338571896
580,Белинский,Пензенская область,52.9640996,43.4183212,52.9669338,43.4130625,0.4726036388427627
817,Кораблино,Рязанская область,53.9246659,40.0227745,53.92099,40.019211,0.47065476884955476
977,Нелидово,Тверская область,56.2232566,32.7767459,56.226097,32.771111,0.47020320515335096
367,Фатеж,Курская область,52.0917728,35.8538706,52.089344,35.859486,0.4691696153333512
723,Симферополь,Республика Крым,44.9482948,34.1001151,44.9521457,34.1024858,0.46707723778536964
612,Чердынь,Пермский край,60.4011933,56.4799933,60.4046807,56.4752752,0.4663835969020478
1088,Аргун,Чеченская Республика,43.2916774,45.8723105,43.2950455,45.8688918,0.46563698541180193
48,Короча,Белгородская область,50.8129041,37.1896436,50.810741,37.195316,0.4655019289810718
125,Череповец,Вологодская область,59.1269212,37.9090497,59.128696,37.916389,0.4629301695404937
286,Сосновка,Кировская область,56.2532741,51.2833642,56.2573802,51.2842677,0.4599755067924226
301,Абинск,Краснодарский край,44.8679655,38.1618157,44.8649528,38.1578189,0.4598256193904426
226,Жиздра,Калужская область,53.7521926,34.7386592,53.748543,34.735447,0.45748646626776795
777,Мензелинск,Республика Татарстан,55.7270698,53.1003968,55.7255585,53.1071815,0.4568798130105081
273,Зуевка,Кировская область,58.4032152,51.1331606,58.4060241,51.1388605,0.45586885688490103
760,Азнакаево,Республика Татарстан,54.8598642,53.0745527,54.8629555,53.0792275,0.4557027712004947
787,Шагонар,Республика Тыва,51.5346393,92.9199675,51.538721,92.9194074,0.4555146051382708
677,Кизилюрт,Республика Дагестан,43.203825,46.8729636,43.1999049,46.8713343,0.4554616603668102
893,Кировград,Свердловская область,57.4299433,60.0624051,57.4264892,60.0664537,0.45415210184582594
127,Богучар,Воронежская область,49.9352454,40.5590801,49.9324498,40.5544754,0.4530448978523521
557,Называевск,Омская область,55.5689323,71.3503426,55.564896,71.349365,0.45300546444133066
1104,Билибино,Чукотский автономный округ,68.0584191,166.4388172,68.0550305,166.4448515,0.4525975256292778
1068,Копейск,Челябинская область,55.116665,61.6179185,55.1131951,61.6216332,0.45241368562710066
700,Сегежа,Республика Карелия,63.7437572,34.3126982,63.7477006,34.31492949809534,0.45201286166140736
765,Бугульма,Республика Татарстан,54.5363495,52.7895849,54.5384152,52.7955953,0.4506719582312851
173,Бирюсинск,Иркутская область,55.9609167,97.8205348,55.964275,97.824509,0.44791762637842025
682,Карабулак,Республика Ингушетия,43.3055248,44.9094582,43.3094909,44.910334,0.44666749375479814
176,Вихоревка,Иркутская область,56.1208145,101.1702926,56.124722,101.171951,0.4464874929938639
28,Мирный,Архангельская область,62.7645265,40.3360076,62.762352,40.328644,0.44597049323711907
756,Владикавказ,Республика Северная Осетия – Алания,43.020588,44.6819182,43.024593,44.68211,0.44560854887863127
292,Кологрив,Костромская область,58.8269323,44.3184927,58.825497,44.311275,0.4450411694625021
725,Судак,Республика Крым,44.8504679,34.9762034,44.8488369,34.971099,0.44137495167845736
46,Грайворон,Белгородская область,50.4862958,35.6663877,50.4837728,35.6712018,0.44126594468027985
65,Сураж,Брянская область,53.0170888,32.3938878,53.0131501,32.3931633,0.4406369387327579
589,Спасск,Пензенская область,53.9271974,43.1859073,53.92689525,43.19261628955434,0.44054221142012623
681,Южно-Сухокумск,Республика Дагестан,44.6602467,45.6499523,44.662231,45.645138,0.4400738160312994
412,Москва,Москва,55.7540471,37.620405,55.7504461,37.6174943,0.4398943251975784
957,Мичуринск,Тамбовская область,52.8912389,40.5104443,52.8946613,40.5071721,0.4393261278402342
601,Кудымкар,Пермский край,59.0167925,54.6572508,59.0128843,54.65837091312176,0.43927703245004895
401,Шлиссельбург,Ленинградская область,59.9443714,31.0333365,59.940431,31.0336955,0.4386084505818467
1082,Троицк,Челябинская область,54.0843745,61.5586831,54.084549,61.551991,0.4369303436482821
203,Гурьевск,Калининградская область,54.770638,20.6039767,54.7745571,20.6037041,0.43613465233372634
1089,Грозный,Чеченская Республика,43.3180145,45.698291,43.3197031,45.6934308,0.4357200488752892
498,Островной,Мурманская область,68.0510344,39.5077846,68.0544447,39.5129384,0.43551772259747457
87,Собинка,Владимирская область,55.9939169,40.0179653,55.9903976,40.0150802,0.43050325221893543
598,Кизел,Пермский край,59.0512783,57.6471028,59.049252,57.6535,0.4296489645966904
684,Малгобек,Республика Ингушетия,43.5096646,44.5901963,43.5127189,44.5869588,0.42837741569074733
18,Сковородино,Амурская область,53.9871095,123.9437205,53.9862567,123.9373454,0.42745278611108817
932,Смоленск,Смоленская область,54.782635,32.045251,54.77897005,32.04718121915615,0.4259071099410688
1060,Верхнеуральск,Челябинская область,53.8760961,59.2169852,53.878002,59.21138,0.4241669521145829
266,Салаир,Кемеровская область - Кузбасс,54.2351735,85.8030733,54.232521,85.798386,0.42402032577306753
606,Оханск,Пермский край,57.7180034,55.3872469,57.7217578,55.386051,0.4234677871565527
1047,Инза,Ульяновская область,53.8549647,46.3533459,53.8579402,46.3573236,0.421335333413209
279,Малмыж,Кировская область,56.5243844,50.6782739,56.5206314,50.6775905,0.4194144582715591
1109,Мышкин,Ярославская область,57.7881684,38.4544224,57.784725,38.451595,0.4179615480779219
385,Любань,Ленинградская область,59.3493847,31.2484801,59.346325,31.244207,0.4176515047240246
473,Старая Купавна,Московская область,55.810648,38.175624,55.8070323,38.1774172,0.4173698854283044
35,Шенкурск,Архангельская область,62.1057272,42.8996973,62.1059279,42.9076435,0.41397462811525
949,Новоалександровск,Ставропольский край,45.4932733,41.2153996,45.4952532,41.2198866,0.4132641077077866
717,Белогорск,Республика Крым,45.057202,34.5999029,45.0584385,34.594959,0.41195191695393335
264,Полысаево,Кемеровская область - Кузбасс,54.6055,86.2809208,54.603142,86.276024,0.41014037632362604
862,Курильск,Сахалинская область,45.2270954,147.8796323,45.2290413,147.8751845,0.4100552190968945
207,Краснознаменск,Калининградская область,54.9453423,22.4928745,54.9417584,22.4913626,0.41004363785658504
647,Белебей,Республика Башкортостан,54.1034582,54.1113129,54.106495,54.107811,0.40761192507896643
621,Дальнереченск,Приморский край,45.9308483,133.7316907,45.9337195,133.7349056,0.40465536511569067
530,Шахунья,Нижегородская область,57.6764293,46.6129009,57.6730182,46.6152378,0.40394687498553067
1107,Данилов,Ярославская область,58.1860098,40.1795067,58.188808,40.175114,0.40386618447000366
383,Лодейное Поле,Ленинградская область,60.7320936,33.5521022,60.7339323,33.5457731,0.40021994024685187
583,Каменка,Пензенская область,53.1855463,44.0469717,53.1850012,44.0529066,0.4000681039815759
213,Пионерский,Калининградская область,54.9516574,20.2277424,54.948227,20.22591,0.39898759852049925
2,Белокуриха,Алтайский край,51.996152,84.9839604,51.9994856,84.9860861,0.39822351203936057
680,Хасавюрт,Республика Дагестан,43.2504665,46.5851292,43.246916,46.5855184,0.39605403504759634
534,Малая Вишера,Новгородская область,58.8458379,32.2247401,58.844215,32.218636,0.39480730319896756
106,Петров Вал,Волгоградская область,50.1380557,45.20914,50.139622,45.2141,0.3940664222100102
740,Алдан,Республика Саха (Якутия),58.6094283,125.3817188,58.608414,125.388222,0.3931813866839741
455,Наро-Фоминск,Московская область,55.386185,36.734484,55.3879473,36.7398309,0.39045521646317016
951,Пятигорск,Ставропольский край,44.041091,43.0661553,44.039775,43.0706669,0.38918143648825565
1013,Ишим,Тюменская область,56.1104858,69.4795776,56.110912,69.473366,0.3880314826440549
774,Лениногорск,Республика Татарстан,54.5967034,52.4431906,54.5994324,52.4469099,0.3866297321511748
350,Далматово,Курганская область,56.262114,62.9387011,56.258656,62.939163,0.3855688052574063
314,Курганинск,Краснодарский край,44.8877025,40.5913245,44.8846971,40.5891773,0.3745605735427924
994,Болохово,Тульская область,54.0820349,37.826724,54.085094,37.829109,0.3740422779544933
261,Мыски,Кемеровская область - Кузбасс,53.7125695,87.8055646,53.71386,87.800316,0.37402295001656066
773,Лаишево,Республика Татарстан,55.4042867,49.5499838,55.4051397,49.55569253230886,0.3726857495528097
844,Вольск,Саратовская область,52.0459865,47.3873595,52.042755,47.386032,0.3706184164005421
692,Кондопога,Республика Карелия,62.2059817,34.2682122,62.20929,34.268185,0.3678688788977433
208,Ладушкин,Калининградская область,54.5692156,20.1690153,54.5712666,20.1734409,0.36523085123500765
946,Михайловск,Ставропольский край,45.1297323,42.0288443,45.1324913,42.0263304,0.36470352890689783
827,Шацк,Рязанская область,54.0287312,41.7181803,54.028687,41.712601,0.3644376141399993
331,Дивногорск,Красноярский край,55.9576784,92.3800687,55.959644,92.37542,0.3626309941821042
206,Калининград,Калининградская область,54.7074702,20.5073241,54.710128,20.5105838,0.3622032144462121
622,Лесозаводск,Приморский край,45.4780092,133.4186199,45.4747744,133.4182158,0.36107069194669433
816,Касимов,Рязанская область,54.9373475,41.3913211,54.939693,41.39518,0.35885853666694467
739,Темников,Республика Мордовия,54.6310583,43.2161099,54.6342327,43.21511935549957,0.3586883312126967
733,Ардатов,Республика Мордовия,54.8465544,46.2411232,54.8436669,46.2386314,0.35852674465760465
179,Иркутск,Иркутская область,52.2864036,104.2807466,52.289597,104.280586,0.3552578583968773
722,Саки,Республика Крым,45.1341997,33.6033383,45.1319466,33.6001281,0.355218920533489
586,Никольск,Пензенская область,53.7137496,46.0799857,53.714596,46.085175,0.35422250551471685
737,Рузаевка,Республика Мордовия,54.0581967,44.9490466,54.058735,44.954391,0.353910869706262
483,Электрогорск,Московская область,55.8780241,38.7806752,55.8792983,38.7858721,0.35376596610962396
945,Минеральные Воды,Ставропольский край,44.2087273,43.138408,44.2107377,43.134969,0.3537007531642091
998,Кимовск,Тульская область,53.9698378,38.5380808,53.9699,38.5327,0.3520047577333815
907,Первоуральск,Свердловская область,56.9080085,59.942926,56.904858,59.943119,0.3505155308752737
348,Уяр,Красноярский край,55.8131263,94.3282601,55.809986,94.327774,0.3505038658178464
1111,Пошехонье,Ярославская область,58.5062879,39.1208434,58.503201,39.119701,0.34960413056708256
365,Рыльск,Курская область,51.5681314,34.6802597,51.570538,34.683506,0.3492160484377222
511,Горбатов,Нижегородская область,56.1307769,43.0626185,56.132816,43.058346,0.3485757615924763
278,Луза,Кировская область,60.6290609,47.2612445,60.630329,47.255405,0.34828244762783905
391,Подпорожье,Ленинградская область,60.9127549,34.1567664,60.914291,34.162354,0.34698986982237373
294,Макарьев,Костромская область,57.8807152,43.8014197,57.880402,43.80724,0.34585858675284176
248,Теберда,Карачаево-Черкесская Республика,43.4437731,41.7415142,43.4410989,41.7436988,0.34572965576074105
494,Кола,Мурманская область,68.8786028,33.0262299,68.880638,33.019726,0.3451384693700087
493,Ковдор,Мурманская область,67.5661417,30.4741941,67.563049,30.474108,0.3439119595047158
165,Тейково,Ивановская область,56.8542719,40.5353874,56.8554753,40.5405863,0.3432360995779121
507,Ветлуга,Нижегородская область,57.8559204,45.7761957,57.85287,45.7757157,0.34037576583583784
197,Терек,Кабардино-Балкарская Республика,43.4839358,44.1402161,43.4826692,44.1363776,0.34021224494621044
880,Верхняя Салда,Свердловская область,58.0465803,60.5560164,58.043598,60.554832,0.3388627556602135
1076,Озерск,Челябинская область,55.763154,60.7076198,55.76046,60.705101,0.3384783382502927
834,Похвистнево,Самарская область,53.6498299,52.1235156,53.646797,52.123344,0.33743269279172355
217,Светлогорск,Калининградская область,54.9439286,20.1514295,54.9417552,20.1550863,0.336086959931187
440,Котельники,Московская область,55.6597925,37.8631156,55.661668,37.8673073,0.33558738870081506
287,Уржум,Кировская область,57.1097477,50.0058097,57.1101118,50.0003067,0.3347398593350527
512,Городец,Нижегородская область,56.6449218,43.4723104,56.647141,43.476002,0.33440737785659247
748,Покровск,Республика Саха (Якутия),61.4843503,129.1482392,61.48327,129.1540617,0.3316106928586108
376,Ивангород,Ленинградская область,59.3766119,28.2231659,59.3744139,28.2192542,0.3298927351410945
180,Киренск,Иркутская область,57.7756595,108.1109412,57.776356,108.116295,0.3267513825697938
699,Пудож,Республика Карелия,61.8058821,36.5329941,61.808434,36.536045,0.32589293938320224
786,Чадан,Республика Тыва,51.2844502,91.5788609,51.286018,91.582817,0.3257128266144953
117,Кадников,Вологодская область,59.5037764,40.3441148,59.5014752,40.340584,0.3243071038550135
820,Рыбное,Рязанская область,54.7256164,39.5134398,54.7268415,39.5088612,0.3240328854747413
914,Сухой Лог,Свердловская область,56.9076193,62.0358093,56.9047389,62.0350233,0.32382144588258843
591,Александровск,Пермский край,59.1613221,57.5763459,59.1632189,57.58063244559492,0.3227730720150638
74,Камешково,Владимирская область,56.3490152,40.9955183,56.3462575,40.997098,0.3217210575298889
431,Жуковский,Московская область,55.599803,38.1224298,55.5972801,38.1199863,0.3197881363328895
7,Камень-на-Оби,Алтайский край,53.7913974,81.3545053,53.7936761,81.3516358,0.31579456630911545
304,Армавир,Краснодарский край,45.0012149,41.1324168,44.9993585,41.1294061,0.31408055376036026
853,Ртищево,Саратовская область,52.2616271,43.7842248,52.259884,43.787853,0.3139153578985443
921,Вязьма,Смоленская область,55.2116983,34.2951663,55.2103563,34.2995187,0.31387065254664115
219,Славск,Калининградская область,55.0449714,21.6742367,55.04549,21.679073,0.3134554782421984
434,Ивантеевка,Московская область,55.9741665,37.9207539,55.9714098,37.9200739,0.3094375106187468
252,Белово,Кемеровская область - Кузбасс,54.4220968,86.3037373,54.419323,86.303429,0.30907675218673747
68,Фокино,Брянская область,53.4554145,34.4159238,53.4526625,34.4154587,0.3075541188944638
164,Родники,Ивановская область,57.1025975,41.7298834,57.105225,41.72839,0.3057683589462365
847,Красноармейск,Саратовская область,51.023541,45.695044,51.025776,45.69252,0.30483583303541417
917,Талица,Свердловская область,57.0122687,63.7320757,57.014816,63.730244,0.3041795953230397
860,Долинск,Сахалинская область,47.3255783,142.7945071,47.3241456,142.7979361,0.3036064044804055
509,Ворсма,Нижегородская область,55.989943,43.2718859,55.988102,43.275486,0.3033881382057392
749,Среднеколымск,Республика Саха (Якутия),67.4582218,153.7069425,67.455497,153.7071456,0.30310761857618795
619,Владивосток,Приморский край,43.1164904,131.8823937,43.1150678,131.8855768,0.302948879399759
271,Белая Холуница,Кировская область,58.8415239,50.8460699,58.8406817,50.8410741,0.30229836070560245
922,Гагарин,Смоленская область,55.5525228,34.9950502,55.55338655,34.99051315482606,0.30109475127189284
759,Агрыз,Республика Татарстан,56.5232864,52.9943775,56.5254597,52.9972512,0.2991064403346325
112,Белозерск,Вологодская область,60.0308381,37.7890586,60.03199,37.7842189,0.2977747301121541
306,Геленджик,Краснодарский край,44.5630007,38.0790852,44.5609447,38.0766832,0.2974551581717931
802,Каменск-Шахтинский,Ростовская область,48.3205326,40.2689583,48.3210807,40.2650679,0.2940419641162745
290,Волгореченск,Костромская область,57.4424559,41.1594201,57.440105,41.157181,0.2937474770456767
693,Костомукша,Республика Карелия,64.5889398,30.6016832,64.5873013,30.5969076,0.29175443607113366
1069,Коркино,Челябинская область,54.8903147,61.4034576,54.889923,61.407963,0.2914087815504305
543,Болотное,Новосибирская область,55.6692421,84.3906889,55.6715707,84.388557,0.2914045628341397
130,Воронеж,Воронежская область,51.6593332,39.1969229,51.6605982,39.2005858,0.2891731421516215
80,Курлово,Владимирская область,55.452698,40.6124108,55.4550805,40.6106078,0.28828581744500514
122,Тотьма,Вологодская область,59.9734998,42.7589506,59.975856,42.7568023,0.2879764746061658
639,Пустошка,Псковская область,56.3374813,29.3668055,56.3350632,29.3684565,0.2874933835476681
789,Абакан,Республика Хакасия,53.7223325,91.4436721,53.7206497,91.4403553,0.2874676328360564
198,Тырныауз,Кабардино-Балкарская Республика,43.3981585,42.9213582,43.3958986,42.9230751,0.287034734571955
33,Северодвинск,Архангельская область,64.5625385,39.8180934,64.563385,39.823769,0.28694591144960474
86,Радужный,Владимирская область,55.9960277,40.3321855,55.9939587,40.3294411,0.2864541628221614
826,Спасск-Рязанский,Рязанская область,54.4070719,40.3763426,54.4078801,40.380539,0.2860625544442374
793,Азов,Ростовская область,47.1121589,39.4232555,47.1139219,39.4259657,0.2837131475680103
409,Чаплыгин,Липецкая область,53.24048,39.9670973,53.243015,39.966801,0.2825678726918754
5,Заринск,Алтайский край,53.7063476,84.9315081,53.707915,84.9348606,0.2811833231415626
1053,Вяземский,Хабаровский край,47.5353379,134.7553856,47.533455,134.757874,0.28059564735825837
4,Горняк,Алтайский край,50.9979622,81.4643358,51.0004641,81.4638583,0.2801981365340922
241,Сухиничи,Калужская область,54.097296,35.3443568,54.099659,35.345821,0.2795609275446032
523,Первомайск,Нижегородская область,54.8675792,43.8013992,54.8666491,43.8054106,0.2767407133382959
638,Псков,Псковская область,57.8194415,28.3317198,57.817398,28.334368,0.2760959102820342
209,Мамоново,Калининградская область,54.4646036,19.9453482,54.4636264,19.9414303,0.27553591676593897
948,Нефтекумск,Ставропольский край,44.7544552,44.9865347,44.752205,44.985077,0.275417794374885
528,Урень,Нижегородская область,57.4612572,45.7833293,57.4614974,45.7878911,0.2741372434730928
136,Павловск,Воронежская область,50.453455,40.136874,50.4520214,40.1399663,0.2708189901573168
485,Электроугли,Московская область,55.7170877,38.2192563,55.7184467,38.2228192,0.2695055106420565
82,Меленки,Владимирская область,55.3387515,41.6340046,55.3368374,41.6314063,0.2688876937551847
230,Козельск,Калужская область,54.0347201,35.780768,54.037102,35.780102,0.2684022598876767
247,Карачаевск,Карачаево-Черкесская Республика,43.7732525,41.9143472,43.7715594,41.911979,0.267582659390839
916,Тавда,Свердловская область,58.0434672,65.274217,58.0413743,65.2719986,0.26684299722668475
778,Набережные Челны,Республика Татарстан,55.7434619,52.3959165,55.7419774,52.399207,0.26394662741667413
856,Шиханы,Саратовская область,52.1147391,47.2023118,52.114838,47.198475,0.2622179564898907
1033,Тобольск,Тюменская область,58.2017299,68.2538558,58.1998048,68.2512924,0.2614993511918952
780,Нурлат,Республика Татарстан,54.4281461,50.8049337,54.4297351,50.8019579,0.2612841043937927
742,Вилюйск,Республика Саха (Якутия),63.7517616,121.627284,63.754082,121.626549,0.2605359712251943
43,Белгород,Белгородская область,50.5976472,36.5856652,50.5955595,36.5873394,0.2604885148053744
100,Краснослободск,Волгоградская область,48.7068721,44.5630857,48.7045848,44.5637959,0.25962055886663504
446,Куровское,Московская область,55.5792277,38.9207723,55.5771391,38.9225824,0.2586141499278276
851,Петровск,Саратовская область,52.3094237,45.3851877,52.3094494,45.3889831,0.25804310729719016
618,Большой Камень,Приморский край,43.1111742,132.3480082,43.1121194,132.3509104,0.2579670007678953
976,Лихославль,Тверская область,57.1221304,35.4667605,57.1244437,35.4665276,0.25761108198453014
735,Ковылкино,Республика Мордовия,54.0391072,43.9191539,54.0380912,43.9156202,0.2569161583578078
950,Новопавловск,Ставропольский край,43.9617097,43.6342865,43.961891,43.6311,0.2558379266319458
987,Колпашево,Томская область,58.3114253,82.9025829,58.313667,82.903557,0.25567666740812617
1101,Шумерля,Чувашская Республика,55.4962415,46.4182681,55.4985162,46.4186725,0.25421439289501957
925,Дорогобуж,Смоленская область,54.9136959,33.3023162,54.9148236,33.2989051,0.25150892498292005
505,Богородск,Нижегородская область,56.1020828,43.5135442,56.103416,43.516819,0.25143485430400453
781,Тетюши,Республика Татарстан,54.936516,48.8314533,54.9342754,48.8319574,0.25121588371322484
694,Лахденпохья,Республика Карелия,61.518881,30.1996116,61.5179265,30.2038927,0.2505964684331387
965,Бологое,Тверская область,57.8855767,34.0537771,57.885204,34.049603,0.2501989915496276
51,Строитель,Белгородская область,50.7845099,36.4887648,50.785236,36.485428,0.24808666496574117
518,Лукоянов,Нижегородская область,55.0326225,44.4933807,55.034821,44.492725,0.24800734732588242
346,Сосновоборск,Красноярский край,56.1202647,93.3354121,56.121494,93.33873,0.24694218587398706
249,Усть-Джегута,Карачаево-Черкесская Республика,44.0838442,41.9711046,44.0858961,41.9722557,0.24598894054598786
671,Улан-Удэ,Республика Бурятия,51.8335853,107.5842223,51.8357841,107.5839105,0.2454322596526552
1009,Ясногорск,Тульская область,54.4795484,37.6896048,54.4792708,37.693329,0.24256931079981947
519,Лысково,Нижегородская область,56.0262359,45.035771,56.027885,45.038315,0.24209999048632397
502,Снежногорск,Мурманская область,69.1921409,33.2383502,69.19191,33.232357,0.23812296300176813
113,Великий Устюг,Вологодская область,60.7603913,46.3054414,60.7612852,46.3014666,0.2376696359529933
566,Медногорск,Оренбургская область,51.4037617,57.583163,51.4049435,57.5803138,0.2373370057411861
918,Туринск,Свердловская область,58.0393524,63.6981973,58.041454,63.697552,0.23675364254545644
274,Киров,Кировская область,58.6035264,49.6679304,58.6035257,49.6639029,0.23330417419944874
730,Звенигово,Республика Марий Эл,55.9738571,48.0170245,55.9718239,48.016105,0.2332087353116007
630,Дно,Псковская область,57.826974,29.9629389,57.8288277,29.9611357,0.2321304625006946
644,Горно-Алтайск,Республика Алтай,51.9581028,85.9603235,51.957775,85.963653,0.2310397942584464
59,Мглин,Брянская область,53.0599771,32.8468129,53.0591919,32.8500077,0.23065998424151413
495,Мончегорск,Мурманская область,67.9386153,32.9359719,67.939903,32.931679,0.22944716352884947
167,Шуя,Ивановская область,56.8560234,41.3800939,56.8558465,41.3838496,0.2291749715763597
1007,Чекалин,Тульская область,54.0984438,36.2474142,54.0970949,36.2448438,0.2249180131472788
285,Советск,Кировская область,57.584196,48.9590272,57.5861888,48.9586978,0.2224573923252715
956,Котовск,Тамбовская область,52.5924489,41.5101237,52.59332675,41.51307094486083,0.22172353774494402
334,Железногорск,Красноярский край,56.2529035,93.532273,56.250938,93.53286,0.22154130868227523
947,Невинномысск,Ставропольский край,44.6226031,41.9476723,44.6245814,41.9475941,0.22006396547660564
1103,Анадырь,Чукотский автономный округ,64.7313924,177.5015421,64.7316875,177.5060925,0.2184616925726261
807,Новочеркасск,Ростовская область,47.411919,40.1042098,47.41066,40.101986,0.21817588794269133
753,Алагир,Республика Северная Осетия – Алания,43.0417684,44.2199715,43.039841,44.220451,0.21783102434093043
312,Кропоткин,Краснодарский край,45.4333007,40.5727951,45.4344413,40.5750274,0.2154662904231212
578,Новосиль,Орловская область,52.97454,37.0437146,52.972939,37.041908,0.2152340838199209
1039,Воткинск,Удмуртская Республика,57.0518149,53.9873096,57.052505,53.990612,0.21395103332689117
825,Спас-Клепики,Рязанская область,55.1291721,40.1745338,55.130867,40.176037,0.2113072445311841
374,Высоцк,Ленинградская область,60.6296236,28.5709314,60.6280319,28.5688339,0.2107382271633691
679,Махачкала,Республика Дагестан,42.9849159,47.5047181,42.9830241,47.5048717,0.21072929513049476
329,Боготол,Красноярский край,56.2098468,89.5299336,56.211464,89.531639,0.20846839304093162
500,Полярный,Мурманская область,69.1989583,33.4508591,69.199524,33.445839,0.20797194711697045
182,Саянск,Иркутская область,54.1107238,102.18015,54.1123301,102.1785158,0.20796518782773185
806,Морозовск,Ростовская область,48.3511807,41.8309225,48.352379,41.828762,0.20794829252324906
99,Котово,Волгоградская область,50.3205766,44.8030699,50.322208,44.801643,0.20777313174396053
1080,Снежинск,Челябинская область,56.0851495,60.7324914,56.087009,60.732674,0.20707707932400649
398,Сясьстрой,Ленинградская область,60.1401739,32.5601559,60.1397073,32.5637502,0.205640761574779
674,Дербент,Республика Дагестан,42.058966,48.2907452,42.057858,48.2887648,0.20472126473629035
433,Звенигород,Московская область,55.7297089,36.8554029,55.7293613,36.8585382,0.20008207273178252
119,Красавино,Вологодская область,60.9612823,46.4814116,60.9617195,46.4778243,0.19962970260800084
369,Бокситогорск,Ленинградская область,59.4734797,33.845688,59.4729021,33.8489952,0.19752566473048713
377,Каменногорск,Ленинградская область,60.950855,29.1308372,60.9526102,29.1303401,0.19700603582669143
384,Луга,Ленинградская область,58.7374031,29.8465776,58.735699,29.8475013,0.19684198016133692
50,Старый Оскол,Белгородская область,51.2967101,37.8350182,51.298038,37.833202,0.19428829080287485
859,Анива,Сахалинская область,46.713152,142.5265804,46.7147768,142.527515,0.19421268225168667
131,Калач,Воронежская область,50.4242134,41.0162014,50.4259519,41.0161721,0.19332352291589017
454,Мытищи,Московская область,55.9105782,37.7363579,55.9094928,37.7339358,0.19327124001909501
281,Нолинск,Кировская область,57.5597284,49.93575,57.5605739,49.93855792642152,0.19206621581544736
469,Руза,Московская область,55.7014744,36.1959206,55.6998907,36.1946992,0.19201123877791074
449,Лосино-Петровский,Московская область,55.8713214,38.200599,55.8705593,38.2032701,0.18695076922885062
392,Приморск,Ленинградская область,60.3660209,28.6135772,60.366665,28.616673,0.18466352345631204
909,Ревда,Свердловская область,56.7986319,59.9071591,56.8000651,59.9086688,0.18397456702886156
640,Пыталово,Псковская область,57.0637952,27.9236214,57.062908,27.921061,0.18355982746754296
1048,Новоульяновск,Ульяновская область,54.1447956,48.3910789,54.1464093,48.3916541,0.18330429954199567
92,Волгоград,Волгоградская область,48.7070042,44.5170339,48.7081906,44.5153353,0.18148917371084403
989,Стрежевой,Томская область,60.732895,77.604122,60.732758,77.600807,0.1808503813565046
986,Кедровый,Томская область,57.561869,79.5677821,57.56192,79.570801,0.180147489257995
885,Екатеринбург,Свердловская область,56.8385216,60.6054911,56.839104,60.60825,0.17986777694459713
244,Вилючинск,Камчатский край,52.9302415,158.4057632,52.931834,158.405383,0.17890215303745385
389,Отрадное,Ленинградская область,59.7726848,30.7988557,59.772663,30.802027,0.17754305012514177
1005,Тула,Тульская область,54.1920559,37.6153842,54.1930321,37.61754,0.17734778117103742
711,Усинск,Республика Коми,65.994147,57.5569423,65.995731,57.5571267,0.17633017747449323
971,Кашин,Тверская область,57.360194,37.6119436,57.361755,37.611454,0.17604128140324318
546,Каргат,Новосибирская область,55.1945666,80.2829495,55.1929899,80.2828252,0.17549846001903713
928,Починок,Смоленская область,54.406244,32.4398039,54.404776,32.4407898,0.17526218212838685
55,Жуковка,Брянская область,53.5340397,33.7302579,53.5329608,33.7320863,0.17027619630785135
1000,Липки,Тульская область,53.9417551,37.7020148,53.9402404,37.7018766,0.1686696715970904
868,Томари,Сахалинская область,47.7620108,142.0615837,47.7612087,142.063478,0.16734233482786384
88,Струнино,Владимирская область,56.3749967,38.5839667,56.374,38.586,0.16720727719453662
829,Кинель,Самарская область,53.2210298,50.6343776,53.219738,50.633228,0.16275982007282505
323,Тихорецк,Краснодарский край,45.8546345,40.1260267,45.854679,40.128124,0.1625010502613056
811,Сальск,Ростовская область,46.4752095,41.5410415,46.476669,41.541008,0.1623092686228807
812,Семикаракорск,Ростовская область,47.5177337,40.8114167,47.516393,40.8122575,0.16189965807207973
897,Кушва,Свердловская область,58.2826013,59.7645766,58.281757,59.762329,0.16148654107687052
741,Верхоянск,Республика Саха (Якутия),67.5502451,133.390735,67.5495068,133.3874618,0.1614243663044733
724,Старый Крым,Республика Крым,45.029058,35.0901474,45.0293926,35.0881549,0.16094328668744812
569,Орск,Оренбургская область,51.2294282,58.4752777,51.2305015,58.4738015,0.1575075701328565
366,Суджа,Курская область,51.1918927,35.2720915,51.190708,35.270855,0.15741247542912926
905,Новая Ляля,Свердловская область,59.0538977,60.5944825,59.052734,60.595974,0.15497518488415443
362,Курчатов,Курская область,51.6604083,35.6572224,51.659466,35.658863,0.15422307001431465
155,Заволжск,Ивановская область,57.4918141,42.1375625,57.4909934,42.13964,0.15408130563165914
611,Чайковский,Пермский край,56.7781501,54.1477965,56.7787468,54.1500704,0.15359869352339603
689,Элиста,Республика Калмыкия,46.3083344,44.2702088,46.306999,44.270187,0.14849914628977187
395,Сертолово,Ленинградская область,60.1446932,30.2095918,60.143707,30.207806,0.14763906578174393
298,Солигалич,Костромская область,59.0784867,42.2878423,59.0775157,42.286097,0.14697917402536995
60,Новозыбков,Брянская область,52.537173,31.9357991,52.537086,31.93367,0.14432413602744257
154,Гаврилов Посад,Ивановская область,56.5586946,40.1228906,56.5585501,40.1205669,0.14329465310865985
974,Красный Холм,Тверская область,58.0571446,37.1126156,58.056507,37.114731,0.14322873219975682
339,Канск,Красноярский край,56.2051282,95.7051096,56.205997,95.706787,0.14175905300639435
225,Ермолино,Калужская область,55.1971758,36.5952722,55.1959779,36.5959883,0.14074040726068243
487,Апатиты,Мурманская область,67.5677761,33.4067929,67.568626,33.404392,0.13895581317633357
845,Ершов,Саратовская область,51.3508505,48.2762226,51.34985,48.275078,0.13673068924856258
488,Гаджиево,Мурманская область,69.2491311,33.315341,69.250359,33.315281,0.136556709806922
309,Ейск,Краснодарский край,46.71157,38.2763895,46.7110877,38.2747683,0.13473880198253216
499,Полярные Зори,Мурманская область,67.373084,32.4975636,67.374084,32.495792,0.13456606923693085
394,Светогорск,Ленинградская область,61.1111282,28.8725865,61.1112542,28.8701036,0.13411406261800088
953,Ставрополь,Ставропольский край,45.044516,41.9689655,45.0433245,41.9690934,0.132869279459561
211,Нестеров,Калининградская область,54.6313814,22.5713736,54.6325455,22.5710998,0.13063608369588967
513,Дзержинск,Нижегородская область,56.2376047,43.4599416,56.2382157,43.4617405,0.13028244253640575
958,Моршанск,Тамбовская область,53.4436216,41.8115478,53.442902,41.813099,0.1302195959222958
1099,Цивильск,Чувашская Республика,55.8650213,47.4729349,55.8661072,47.473703,0.1299101120369832
696,Олонец,Республика Карелия,60.9794025,32.9725519,60.979276,32.9749376,0.12945929013516688
798,Гуково,Ростовская область,48.0448904,39.9484672,48.0460281,39.94867724242869,0.1274664265016213
537,Сольцы,Новгородская область,58.1201281,30.309351,58.119003,30.309679,0.1265796652185135
718,Джанкой,Республика Крым,45.7092306,34.3883372,45.7093755,34.3899131,0.12342061444347598
41,Харабали,Астраханская область,47.408999,47.2525345,47.4083742,47.2538899,0.12341081084152894
222,Балабаново,Калужская область,55.1773714,36.6566951,55.1783579,36.6575564,0.12257079937916138
151,Чита,Забайкальский край,52.0340142,113.4994,52.033409,113.500893,0.12230892417211284
387,Никольское,Ленинградская область,59.7043309,30.7874571,59.7034799,30.7861084,0.12115216207110079
1085,Челябинск,Челябинская область,55.1602624,61.4008078,55.1598408,61.4025547,0.12046622128082424
156,Иваново,Ивановская область,56.9993792,40.9728272,56.9984452,40.9737394,0.11763562835634626
53,Брянск,Брянская область,53.2419535,34.3652146,53.2423778,34.3668288,0.11731838518306435
883,Волчанск,Свердловская область,59.9351707,60.0798618,59.9347177,60.0779677,0.11692096456361188
581,Городище,Пензенская область,53.2726916,45.7026142,53.273724,45.702282,0.11690356904848981
761,Альметьевск,Республика Татарстан,54.9014619,52.2970467,54.9005008,52.2963777,0.11511137887471747
450,Луховицы,Московская область,54.9652077,39.0260266,54.9655573,39.0277188,0.11480155376781745
767,Елабуга,Республика Татарстан,55.7567107,52.0543794,55.7577131,52.0539938,0.11404312232249213
594,Горнозаводск,Пермский край,58.3742532,58.3231716,58.374001,58.325058,0.11350965057692612
427,Домодедово,Московская область,55.4363283,37.7664984,55.4368213,37.7680693,0.11324899871554311
381,Коммунар,Ленинградская область,59.6215133,30.3934125,59.6221955,30.3919223,0.11303179563443011
159,Кохма,Ивановская область,56.9324606,41.0931657,56.9315448,41.0939402,0.11215125548251381
1,Барнаул,Алтайский край,53.3479968,83.7798064,53.347402,83.7784496,0.11173895543005799
732,Козьмодемьянск,Республика Марий Эл,56.3334036,46.546675,56.3324346,46.5462855,0.11039057460574082
1042,Камбарка,Удмуртская Республика,56.2659916,54.193374,56.2652515,54.1945613,0.11021783197232463
894,Краснотурьинск,Свердловская область,59.7636635,60.1934525,59.764631,60.1936117,0.10794977205798743
364,Обоянь,Курская область,51.2119324,36.2755133,51.211079,36.276245,0.10771546043918104
486,Яхрома,Московская область,56.2890516,37.4831799,56.289936,37.4838441,0.10654137653046666
56,Злынка,Брянская область,52.4267015,31.7360399,52.4274018,31.7371106,0.10646150820643256
70,Владимир,Владимирская область,56.1280804,40.4084376,56.1288899,40.4075203,0.10646051125648329
34,Сольвычегодск,Архангельская область,61.3319616,46.920441,61.331333,46.918938,0.10636697824949357
150,Хилок,Забайкальский край,51.3634856,110.4590898,51.3628436,110.4579749,0.10529823559830072
863,Макаров,Сахалинская область,48.6236334,142.7803205,48.6242527,142.7814002,0.10507017508779366
344,Назарово,Красноярский край,56.0113799,90.4168775,56.011593,90.418503,0.1037838581889841
251,Анжеро-Судженск,Кемеровская область - Кузбасс,56.0786281,86.0201278,56.077808,86.019356,0.10300252789025115
40,Нариманов,Астраханская область,46.6916565,47.8502476,46.692261,47.851238,0.10111509140886046
752,Якутск,Республика Саха (Якутия),62.0281405,129.7325887,62.027287,129.732086,0.09845986018599835
964,Белый,Тверская область,55.8339056,32.9389741,55.833073,32.939487,0.09796471391604405
238,Обнинск,Калужская область,55.0943144,36.6121639,55.0951738,36.611913,0.09688523034278503
855,Хвалынск,Саратовская область,52.4951572,48.1045771,52.495499,48.105888,0.09654172926797865
302,Анапа,Краснодарский край,44.8950433,37.3163282,44.894272,37.316887,0.096400711873109
345,Норильск,Красноярский край,69.3489978,88.2009846,69.3498394,88.200517,0.09536124124504058
42,Алексеевка,Белгородская область,50.6299647,38.6880342,50.6299364,38.6867154,0.0930733033013185
1003,Советск,Тульская область,53.9338874,37.6316141,53.9346588,37.6320858,0.09116444529031605
396,Сланцы,Ленинградская область,59.1178185,28.0881475,59.11726,28.086979,0.09112839771054689
536,Пестово,Новгородская область,58.5973723,35.8143898,58.5981825,35.81432054429986,0.0901794406323163
1102,Ядрин,Чувашская Республика,55.9406974,46.2020896,55.9407976,46.2006586,0.08980891902575118
1052,Бикин,Хабаровский край,46.8185743,134.2550718,46.819363,134.254822,0.08973561665463375
481,Шатура,Московская область,55.5777427,39.5445712,55.578403,39.5437584,0.08944809363354364
515,Княгинино,Нижегородская область,55.8205915,45.032337,55.821281,45.031601,0.08939743203535051
64,Стародуб,Брянская область,52.5852257,32.760403,52.584446,32.760098,0.08911378679042853
912,Серов,Свердловская область,59.6047724,60.5753882,59.6051905,60.574043,0.08881999875478337
44,Бирюч,Белгородская область,50.6484585,38.4005083,50.6491642,38.3999281,0.08849289380829692
115,Вытегра,Вологодская область,61.0063465,36.4495137,61.006355,36.451122,0.08668864682875846
714,Алушта,Республика Крым,44.6764304,34.4100624,44.677112,34.4095393,0.08634191260254376
200,Багратионовск,Калининградская область,54.3866518,20.6418091,54.3868191,20.6405124,0.0859975780823814
540,Чудово,Новгородская область,59.1248394,31.6866241,59.1240916,31.686279384661383,0.08544649509048288
889,Каменск-Уральский,Свердловская область,56.414962,61.9188674,56.415451,61.917797,0.08539014546779329
882,Верхотурье,Свердловская область,58.8622073,60.8103945,58.861702,60.809338,0.08274811561878324
444,Краснознаменск,Московская область,55.5978959,37.0393709,55.5971787,37.0395057,0.08019741203406737
623,Находка,Приморский край,42.8239372,132.8927361,42.8246489,132.8926,0.07991204300950391
529,Чкаловск,Нижегородская область,56.7651262,43.242077,56.764915,43.243324,0.07954183866148767
577,Мценск,Орловская область,53.2788438,36.5749105,53.278984,36.576077,0.0791068766675218
937,Георгиевск,Ставропольский край,44.1485694,43.4739851,44.1478944,43.4741718,0.07652049623839317
572,Ясный,Оренбургская область,51.036838,59.874344,51.036957,59.873268,0.07639036608447944
338,Иланский,Красноярский край,56.2374037,96.067267,56.23806,96.06694,0.0757232851008562
315,Лабинск,Краснодарский край,44.6354363,40.7245341,44.6347953,40.7242185,0.07552394943215304
12,Белогорск,Амурская область,50.9213415,128.4739471,50.921326,128.47287,0.07551987186476242
560,Тюкалинск,Омская область,55.8703415,72.1954747,55.870556,72.196617,0.0751508560508441
118,Кириллов,Вологодская область,59.8591523,38.3748782,59.8588453,38.3760743,0.07500229117027725
307,Горячий Ключ,Краснодарский край,44.6344864,39.1354738,44.6342653,39.1363613,0.07440423916272942
701,Сортавала,Республика Карелия,61.703367,30.6916998,61.70274,30.691231,0.07396890279193091
576,Малоархангельск,Орловская область,52.4002192,36.5038579,52.399578,36.504021,0.07215177002471704
474,Ступино,Московская область,54.886274,38.078228,54.886598,38.0772589,0.07169261635080727
428,Дрезна,Московская область,55.7443143,38.8498479,55.7448093,38.8491341,0.07089120170346551
3,Бийск,Алтайский край,52.5393864,85.2138453,52.5394905,85.2148673,0.07008088896627884
170,Алзамай,Иркутская область,55.5551233,98.6643699,55.554956,98.6654191,0.06855988470303669
400,Тосно,Ленинградская область,59.5407098,30.877812,59.5412777,30.8773645,0.06799914725968077
658,Октябрьский,Республика Башкортостан,54.4815311,53.4655972,54.4809722,53.4660062,0.06753028086543748
550,Обь,Новосибирская область,54.9945576,82.6937181,54.9951335,82.6933946,0.06727974840527866
317,Новороссийск,Краснодарский край,44.7235026,37.7686135,44.7239578,37.7690711,0.062201171992266956
660,Сибай,Республика Башкортостан,52.7204651,58.6663783,52.720425,58.665466,0.061606137483395815
191,Шелехов,Иркутская область,52.2102538,104.0973294,52.2097478,104.097683,0.0612061286062417
351,Катайск,Курганская область,56.290809,62.5800359,56.290913,62.579082,0.059990936230261104
464,Пушкино,Московская область,56.0103638,37.8471403,56.0104274,37.8461892,0.059544388466686325
280,Мураши,Кировская область,59.3955383,48.9638417,59.3951018,48.9644445,0.059332187898732645
836,Сызрань,Самарская область,53.1558674,48.4744629,53.15538,48.474121,0.05879585654560113
253,Березовский,Кемеровская область - Кузбасс,55.6693513,86.2744459,55.6696946,86.275154,0.05855766346432539
101,Ленинск,Волгоградская область,48.6936061,45.1992692,48.6941186,45.199215,0.05712608427593694
517,Кулебаки,Нижегородская область,55.4296181,42.5125538,55.429287,42.511879,0.05628661301539976
184,Слюдянка,Иркутская область,51.6563983,103.7187545,51.656769,103.719292,0.05544245340273009
175,Братск,Иркутская область,56.1513108,101.6340035,56.1517085,101.6334907,0.054445693444339846
172,Байкальск,Иркутская область,51.5230393,104.1487532,51.522598,104.149071,0.05377114046108892
336,Зеленогорск,Красноярский край,56.1131564,94.5888103,56.11356,94.589279,0.0534642292868715
104,Новоаннинский,Волгоградская область,50.5296067,42.6666439,50.529675,42.667362,0.051323396458205627
670,Северобайкальск,Республика Бурятия,55.635614,109.3361505,55.635967,109.335648,0.05035287295506536
592,Березники,Пермский край,59.4079923,56.8039427,59.4084171,56.8036958,0.049258654451537195
831,Новокуйбышевск,Самарская область,53.0994565,49.9477382,53.099243,49.948364,0.048054904835715534
839,Санкт-Петербург,Санкт-Петербург,59.9391313,30.3159004,59.938732,30.316229,0.04802471551638201
648,Белорецк,Республика Башкортостан,53.9676488,58.4100419,53.9680705,58.4099549,0.04723493918089417
772,Кукмор,Республика Татарстан,56.1861392,50.8970238,56.1865318,50.8972087,0.04512956546507489
472,Солнечногорск,Московская область,56.185102,36.977631,56.1853501,36.9781536,0.04250743621541049
268,Таштагол,Кемеровская область - Кузбасс,52.759313,87.8476546,52.759403,87.848267,0.04240685724629544
463,Протвино,Московская область,54.8705984,37.2182749,54.8707703,37.2188629,0.04219987111083852
419,Волоколамск,Московская область,56.0356499,35.9585112,56.0360129,35.9583358,0.04180860185075968
585,Нижний Ломов,Пензенская область,53.5300905,43.6730217,53.529991,43.673626,0.04144491563529259
944,Лермонтов,Ставропольский край,44.1054107,42.973135,44.1050468,42.9731466,0.04047443261050366
355,Петухово,Курганская область,55.0650077,67.8873408,55.064663,67.887154,0.040132104410297915
890,Камышлов,Свердловская область,56.8465034,62.7119766,56.846161,62.712154,0.0395719894641375
356,Шадринск,Курганская область,56.0870344,63.6297182,56.087364,63.629482,0.03947074858199815
417,Верея,Московская область,55.343369,36.185694,55.343238,36.185145,0.03764660507503031
832,Октябрьск,Самарская область,53.1640488,48.670762,53.164191,48.6712489,0.03610523744204499
1038,Ялуторовск,Тюменская область,56.6547289,66.3122992,56.654934,66.312752,0.03586189496056578
710,Сыктывкар,Республика Коми,61.6686617,50.8358151,61.6685237,50.8352024,0.035788689975883754
1058,Аша,Челябинская область,54.9906527,57.2783953,54.9908896,57.2780531,0.034211976168729015
542,Бердск,Новосибирская область,54.7582156,83.1070605,54.75795,83.1068095,0.0336390658081289
162,Приволжск,Ивановская область,57.3805743,41.2808565,57.380333,41.281178,0.03303463994731285
571,Сорочинск,Оренбургская область,52.426685,53.1542745,52.426971,53.154175,0.03250947849203254
1001,Новомосковск,Тульская область,54.0109075,38.2914024,54.011013,38.290943,0.03222874633125591
45,Валуйки,Белгородская область,50.2111207,38.0998772,50.211296,38.100227,0.03161582938024316
657,Нефтекамск,Республика Башкортостан,56.088377,54.2483061,56.0884031,54.2478094,0.03095020970501598
762,Арск,Республика Татарстан,56.0912567,49.877067,56.0909916,49.8771828,0.030340407124911064
520,Навашино,Нижегородская область,55.543811,42.1887089,55.544071,42.188671,0.029008835258673753
276,Кирс,Кировская область,59.340056,52.2414437,59.3398971,52.2418232,0.027843281332430806
1056,Советская Гавань,Хабаровский край,48.9664966,140.285174,48.966297,140.284958,0.027225420749892922
475,Талдом,Московская область,56.7308564,37.5276003,56.730941,37.528016,0.027045758775049836
891,Карпинск,Свердловская область,59.7665925,60.0011703,59.7667893,60.0009267,0.025785533728961117
524,Перевоз,Нижегородская область,55.5967718,44.5448369,55.596546,44.544846,0.025114322888676335
906,Новоуральск,Свердловская область,57.2472567,60.0956714,57.247047,60.095818,0.02492965452458965
133,Нововоронеж,Воронежская область,51.3091524,39.2162843,51.30905,39.2160054,0.022482874014878453
205,Зеленоградск,Калининградская область,54.9600185,20.4753652,54.9600365,20.4750188,0.02220536794049299
220,Советск,Калининградская область,55.0809336,21.8886106,55.0809688,21.8882673,0.02219884147789964
626,Уссурийск,Приморский край,43.7971818,131.9518229,43.7972447,131.9520752,0.02142341369978376
582,Заречный,Пензенская область,53.1960836,45.1689907,53.196014,45.169273,0.02033551760384647
32,Онега,Архангельская область,63.9162928,38.0805031,63.91644255,38.08026770943984,0.020241361914350976
163,Пучеж,Ивановская область,56.9820688,43.1683321,56.982048,43.168003,0.020073951531646334
764,Болгар,Республика Татарстан,54.974891,49.0303882,54.9747437,49.0302075,0.02003148702163386
370,Волосово,Ленинградская область,59.4445408,29.4923355,59.44439375,29.492515758626187,0.019266377201442392
260,Междуреченск,Кемеровская область - Кузбасс,53.6865289,88.0702754,53.6863763,88.0703443,0.01756444559460998
192,Баксан,Кабардино-Балкарская Республика,43.6819137,43.5345036,43.6820626,43.5344319,0.017532119458396625
461,Пересвет,Московская область,56.4158326,38.1733534,56.4158101,38.1736347,0.01748236047795773
358,Щучье,Курганская область,55.2087637,62.7478548,55.208908,62.747772,0.01688352876934961
193,Майский,Кабардино-Балкарская Республика,43.6281516,44.0517314,43.6282481,44.0518741,0.01571796644943933
13,Благовещенск,Амурская область,50.290659,127.527198,50.290527,127.527161,0.014911238103449666
430,Егорьевск,Московская область,55.3830113,39.0358317,55.3829765,39.0356223,0.013781873914369795
196,Прохладный,Кабардино-Балкарская Республика,43.7589602,44.0102409,43.7590017,44.0103981,0.01344183301120463
972,Кимры,Тверская область,56.8733213,37.3556605,56.8734395,37.3556968,0.013327059386535046
770,Иннополис,Республика Татарстан,55.7521699,48.7446846,55.7522603,48.7445774,0.012084888442270014
653,Ишимбай,Республика Башкортостан,53.4545764,56.0438751,53.454655,56.043995,0.011807251023491578
929,Рославль,Смоленская область,53.9449558,32.8480258,53.9448678,32.84793172853266,0.011560797662304799
169,Юрьевец,Ивановская область,57.3177781,43.1110401,57.3178792,43.1110178,0.011321264473917157
293,Кострома,Костромская область,57.768,40.927,57.7679158,40.9269141,0.010658849006833455
940,Зеленокумск,Ставропольский край,44.4032668,43.8841877,44.403175,43.884163,0.010394578281937282
492,Кировск,Мурманская область,67.6150424,33.663735,67.6151331,33.6637527,0.010113193050974347
47,Губкин,Белгородская область,51.2837123,37.5347759,51.283714,37.53466,0.00806288461391263
659,Салават,Республика Башкортостан,53.3616974,55.9245224,53.361687,55.924641,0.007954433080085135
445,Кубинка,Московская область,55.5754955,36.6951995,55.5755486,36.6952802,0.007784368558449052
875,Асбест,Свердловская область,57.0052277,61.4581156,57.0052746,61.4580765,0.005727321869215361
158,Комсомольск,Ивановская область,57.0273052,40.3776851,57.027321,40.377602,0.005326986741429626
1074,Миньяр,Челябинская область,55.0709557,57.548478,55.0709139,57.5485021,0.004894655222371772
320,Сочи,Краснодарский край,43.5854551,39.7231548,43.5854823,39.723109,0.0047702830571559685
988,Северск,Томская область,56.6031285,84.8809926,56.603161,84.881012,0.0038039051859064953
824,Скопин,Рязанская область,53.823543,39.5492421,53.823524,39.549274,0.0029744577084067753
84,Петушки,Владимирская область,55.9298134,39.4508075,55.92980185,39.4508310119064,0.0019479514345538478
29,Нарьян-Мар,Архангельская область,67.63777777777779,53.00666666666667,,,
79,Костерево,Владимирская область,55.9337222,39.6247398,,,
134,Новохоперск,Воронежская область,51.0952211,41.6173404,,,
146,Могоча,Забайкальский край,53.7361398,119.7660867,,,
161,Плес,Ивановская область,57.4606031,41.5122672,,,
212,Озерск,Калининградская область,54.4084705,22.0134438,,,
216,Приморск,Калининградская область,54.7311437,19.9981926,,,
232,Кременки,Калужская область,54.8862447,37.1168701,,,
257,Киселевск,Кемеровская область - Кузбасс,54.0059999,86.6366116,,,
327,Артемовск,Красноярский край,54.3473075,93.4358377,,,
335,Заозерный,Красноярский край,55.9617752,94.7091491,,,
390,Пикалево,Ленинградская область,59.5132022,34.1772776,,,
411,Сусуман,Магаданская область,62.7805882,148.1540281,,,
415,Белоозерский,Московская область,55.4595766,38.4389742,,,
447,Ликино-Дулево,Московская область,55.7078257,38.9578093,,,
458,Озеры,Московская область,54.8541006,38.5599196,,,
489,Заозерск,Мурманская область,69.4003584,32.4501496,,,
526,Семенов,Нижегородская область,56.7889794,44.4902885,,,
551,Татарск,Новосибирская область,55.2146167,75.9739914,,,
556,Калачинск,Омская область,55.0598155,74.5653644,,,
607,Очер,Пермский край,57.8852686,54.7161091,,,
613,Чермоз,Пермский край,58.7842834,56.1507138,,,
747,Олекминск,Республика Саха (Якутия),60.3758006,120.4060878,,,
785,Туран,Республика Тыва,52.1449619,93.9173396,,,
828,Жигулевск,Самарская область,53.4011981,49.4945176,,,
852,Пугачев,Саратовская область,52.0159921,48.7972223,,,
876,Березовский,Свердловская область,56.9095924,60.8180907,,,
936,Буденновск,Ставропольский край,44.7816067,44.1650339,,,
967,Вышний Волочек,Тверская область,57.568302,34.5404016,,,
992,Белев,Тульская область,53.8114179,36.1382247,,,
995,Венев,Тульская область,54.3542315,38.2642236,,,
1008,Щекино,Тульская область,54.0020652,37.5176288,,,
1010,Белоярский,Тюменская область,63.7121099,66.6772226,,,
1011,Губкинский,Тюменская область,64.4457594,76.4713274,,,
1014,Когалым,Тюменская область,62.2639527,74.4829794,,,
1015,Лабытнанги,Тюменская область,66.6592841,66.3883009,,,
1016,Лангепас,Тюменская область,61.2536939,75.1807763,,,
1017,Лянтор,Тюменская область,61.6392863,72.179409,,,
1018,Мегион,Тюменская область,61.0318712,76.1025878,,,
1019,Муравленко,Тюменская область,63.7940552,74.4948635,,,
1020,Надым,Тюменская область,65.5377966,72.5182736,,,
1021,Нефтеюганск,Тюменская область,61.0882676,72.6164079,,,
1022,Нижневартовск,Тюменская область,60.9396698,76.5696184,,,
1023,Новый Уренгой,Тюменская область,66.0839433,76.6809681,,,
1024,Ноябрьск,Тюменская область,63.2018039,75.4510581,,,
1025,Нягань,Тюменская область,62.1454701,65.3946047,,,
1026,Покачи,Тюменская область,61.7422169,75.5941517,,,
1027,Пыть-Ях,Тюменская область,60.7585833,72.8365617,,,
1028,Радужный,Тюменская область,62.1342888,77.4584094,,,
1029,Салехард,Тюменская область,66.5492077,66.6085318,,,
1030,Советский,Тюменская область,61.3706913,63.5667222,,,
1031,Сургут,Тюменская область,61.2541083,73.3961587,,,
1032,Тарко-Сале,Тюменская область,64.9118803,77.7610236,,,
1035,Урай,Тюменская область,60.1296954,64.8038508,,,
1036,Ханты-Мансийск,Тюменская область,61.0023984,69.0184798,,,
1037,Югорск,Тюменская область,61.3123568,63.3365484,,,
1081,Трехгорный,Челябинская область,54.8178249,58.4464194,,,
